state,zip_code,city,county,territory_code
al,all_others,all_others,autauga,112
al,all_others,all_others,baldwin_inland_territories,111
al,all_others,all_others,baldwin_seacoast_territories,113
al,all_others,barnwell,baldwin_beach_territories,114
al,all_others,battles_wharf,baldwin_beach_territories,114
al,all_others,bay_la_launch,baldwin_beach_territories,114
al,all_others,bayou_st_john,baldwin_beach_territories,114
al,all_others,bear_point,baldwin_beach_territories,114
al,all_others,belforest,baldwin_beach_territories,114
al,all_others,bon_secour,baldwin_beach_territories,114
al,all_others,bridgehead,baldwin_beach_territories,114
al,all_others,caswell,baldwin_beach_territories,114
al,all_others,collins_creek,baldwin_beach_territories,114
al,all_others,cotton_bayou,baldwin_beach_territories,114
al,all_others,dauphne,baldwin_beach_territories,114
al,all_others,edith_hammock,baldwin_beach_territories,114
al,all_others,fairhope,baldwin_beach_territories,114
al,all_others,fort_morgan,baldwin_beach_territories,114
al,all_others,fort_morgan,baldwin_beach_territories,114
al,all_others,peninsula,baldwin_beach_territories,114
al,all_others,gasque,baldwin_beach_territories,114
al,all_others,gulf_highlands,baldwin_beach_territories,114
al,all_others,gulf_shores,baldwin_beach_territories,114
al,all_others,gulf_state_park,baldwin_beach_territories,114
al,all_others,hatchett_point,baldwin_beach_territories,114
al,all_others,incrarity_point,baldwin_beach_territories,114
al,all_others,jackson_oaks,baldwin_beach_territories,114
al,all_others,jonesboro,baldwin_beach_territories,114
al,all_others,josephine,baldwin_beach_territories,114
al,all_others,lillian,baldwin_beach_territories,114
al,all_others,little_lagoon,baldwin_beach_territories,114
al,all_others,little_point_clear,baldwin_beach_territories,114
al,all_others,magnolia_springs,baldwin_beach_territories,114
al,all_others,malbis_plantation,baldwin_beach_territories,114
al,all_others,miflin,baldwin_beach_territories,114
al,all_others,montrose,baldwin_beach_territories,114
al,all_others,navy_cove,baldwin_beach_territories,114
al,all_others,oak,baldwin_beach_territories,114
al,all_others,old_spanish_fort,baldwin_beach_territories,114
al,all_others,orange_beach,baldwin_beach_territories,114
al,all_others,oyster_bay,baldwin_beach_territories,114
al,all_others,palmetto_beach,baldwin_beach_territories,114
al,all_others,perdido_bay,baldwin_beach_territories,114
al,all_others,pine_beach,baldwin_beach_territories,114
al,all_others,point_clear,baldwin_beach_territories,114
al,all_others,ragged_point,baldwin_beach_territories,114
al,all_others,romar_beach,baldwin_beach_territories,114
al,all_others,ross_point,baldwin_beach_territories,114
al,all_others,sapling_point,baldwin_beach_territories,114
al,all_others,seacliff,baldwin_beach_territories,114
al,all_others,seymour_bluff,baldwin_beach_territories,114
al,all_others,shell_banks,baldwin_beach_territories,114
al,all_others,spanish_fort,baldwin_beach_territories,114
al,all_others,three_rivers,baldwin_beach_territories,114
al,all_others,village_point,baldwin_beach_territories,114
al,all_others,weeks_bay,baldwin_beach_territories,114
al,all_others,yelling_settlement,baldwin_beach_territories,114
al,all_others,zundles,baldwin_beach_territories,114
al,all_others,all_others,barbour,112
al,all_others,all_others,bibb,112
al,all_others,all_others,blount,112
al,all_others,all_others,bullock,112
al,all_others,all_others,butler,112
al,all_others,all_others,calhoun,112
al,all_others,all_others,chambers,112
al,all_others,all_others,cherokee,112
al,all_others,all_others,chilton,112
al,all_others,all_others,choctaw,112
al,all_others,all_others,clarke,112
al,all_others,all_others,clay,112
al,all_others,all_others,cleburne,112
al,all_others,all_others,coffee,111
al,all_others,all_others,colbert,111
al,all_others,all_others,conecuh,111
al,all_others,all_others,coosa,112
al,all_others,all_others,covington,111
al,all_others,all_others,crenshaw,112
al,all_others,all_others,cullman,112
al,all_others,all_others,dale,112
al,all_others,all_others,dallas,112
al,all_others,all_others,dekalb,112
al,all_others,all_others,elmore,112
al,all_others,all_others,escambia,111
al,all_others,all_others,etowah,112
al,all_others,all_others,fayette,112
al,all_others,all_others,franklin,112
al,all_others,all_others,geneva,111
al,all_others,all_others,greene,112
al,all_others,all_others,hale,112
al,all_others,all_others,henry,112
al,all_others,all_others,houston,112
al,all_others,all_others,jackson,112
al,all_others,all_others,jefferson,112
al,all_others,birmingham,jefferson,122
al,all_others,all_others,lamar,112
al,all_others,all_others,lauderdale,111
al,all_others,all_others,lawrence,112
al,all_others,all_others,lee,112
al,all_others,all_others,limestone,111
al,all_others,all_others,lowndes,112
al,all_others,all_others,macon,112
al,all_others,all_others,madison,111
al,all_others,all_others,marengo,112
al,all_others,all_others,marion,112
al,all_others,all_others,marshall,112
al,all_others,all_others,mobile_inland_territories,111
al,all_others,all_others,mobile_seacoast_territories,113
al,all_others,alabama_port,mobile_beach_territories,114
al,all_others,bayou_la_batre,mobile_beach_territories,114
al,all_others,bellefontaine,mobile_beach_territories,114
al,all_others,bellingrath_gardens,mobile_beach_territories,114
al,all_others,brookley_field,mobile_beach_territories,114
al,all_others,cedar_point,mobile_beach_territories,114
al,all_others,coden,mobile_beach_territories,114
al,all_others,deep_river_point,mobile_beach_territories,114
al,all_others,delchamps,mobile_beach_territories,114
al,all_others,dog_river,mobile_beach_territories,114
al,all_others,dog_river_point,mobile_beach_territories,114
al,all_others,faustina,mobile_beach_territories,114
al,all_others,fowl_river,mobile_beach_territories,114
al,all_others,fowl_river_point,mobile_beach_territories,114
al,all_others,laurendine,mobile_beach_territories,114
al,all_others,mon_louis,mobile_beach_territories,114
al,all_others,mobile,mobile_beach_territories,114
al,all_others,smithport,mobile_beach_territories,114
al,all_others,south_orchard,mobile_beach_territories,114
al,all_others,sunny_cove,mobile_beach_territories,114
al,all_others,all_others,monroe,111
al,all_others,all_others,montgomery,112
al,all_others,all_others,morgan,111
al,all_others,all_others,perry,112
al,all_others,all_others,pickens,112
al,all_others,all_others,pike,112
al,all_others,all_others,randolph,112
al,all_others,all_others,russell,112
al,all_others,all_others,st_clair,112
al,all_others,all_others,shelby,112
al,all_others,all_others,sumter,112
al,all_others,all_others,talladega,112
al,all_others,all_others,tallapoosa,112
al,all_others,all_others,tuscaloosa,112
al,all_others,all_others,walker,112
al,all_others,all_others,washington,111
al,all_others,all_others,wilcox,112
al,all_others,all_others,winston,112
ar,all_others,all_others,arkansas,112
ar,all_others,all_others,ashley,112
ar,all_others,all_others,baxter,112
ar,all_others,all_others,benton,112
ar,all_others,all_others,boone,112
ar,all_others,all_others,bradley,112
ar,all_others,all_others,calhoun,112
ar,all_others,all_others,carroll,112
ar,all_others,all_others,chicot,112
ar,all_others,all_others,clark,112
ar,all_others,all_others,clay,111
ar,all_others,all_others,cleburne,112
ar,all_others,all_others,cleveland,112
ar,all_others,all_others,columbia,112
ar,all_others,all_others,conway,112
ar,all_others,all_others,craighead,111
ar,all_others,all_others,crawford,112
ar,all_others,all_others,crittenden,111
ar,all_others,west_memphis,crittenden,131
ar,all_others,all_others,cross,112
ar,all_others,all_others,dallas,112
ar,all_others,all_others,desha,112
ar,all_others,all_others,drew,112
ar,all_others,all_others,faulkner,112
ar,all_others,all_others,franklin,112
ar,all_others,all_others,fulton,112
ar,all_others,all_others,garland,112
ar,all_others,hot,garland,132
ar,all_others,all_others,grant,112
ar,all_others,all_others,greene,111
ar,all_others,all_others,hempstead,112
ar,all_others,all_others,hot_spring,112
ar,all_others,all_others,howard,112
ar,all_others,all_others,independence,112
ar,all_others,all_others,izard,112
ar,all_others,all_others,jackson,111
ar,all_others,all_others,jefferson,112
ar,all_others,pine_bluff,jefferson,132
ar,all_others,all_others,johnson,112
ar,all_others,all_others,lafayette,112
ar,all_others,all_others,lawrence,111
ar,all_others,all_others,lee,112
ar,all_others,all_others,lincoln,112
ar,all_others,all_others,little_river,112
ar,all_others,all_others,logan,112
ar,all_others,all_others,lonoke,112
ar,all_others,all_others,madison,112
ar,all_others,all_others,marion,112
ar,all_others,all_others,miller,112
ar,all_others,all_others,mississippi,111
ar,all_others,all_others,monroe,112
ar,all_others,all_others,montgomery,112
ar,all_others,all_others,nevada,112
ar,all_others,all_others,newton,112
ar,all_others,all_others,ouachita,112
ar,all_others,all_others,perry,112
ar,all_others,all_others,phillips,112
ar,all_others,all_others,pike,112
ar,all_others,all_others,poinsett,111
ar,all_others,all_others,polk,112
ar,all_others,all_others,pope,112
ar,all_others,all_others,prairie,112
ar,all_others,all_others,pulaski,112
ar,all_others,little_rock,pulaski,122
ar,all_others,north_little_rock,pulaski,132
ar,all_others,all_others,randolph,112
ar,all_others,all_others,saline,112
ar,all_others,all_others,scott,112
ar,all_others,all_others,searcy,112
ar,all_others,all_others,sebastian,112
ar,all_others,fort_smith,sebastian,132
ar,all_others,all_others,sevier,112
ar,all_others,all_others,sharp,112
ar,all_others,all_others,st_francis,112
ar,all_others,all_others,stone,112
ar,all_others,all_others,union,112
ar,all_others,all_others,van_buren,112
ar,all_others,all_others,washington,112
ar,all_others,fayetteville,washington,132
ar,all_others,all_others,white,112
ar,all_others,all_others,woodruff,111
ar,all_others,all_others,yell,112
co,all_others,all_others,adams,114
co,all_others,aurora,adams,134
co,all_others,all_others,alamosa,111
co,all_others,all_others,arapahoe,114
co,all_others,aurora,arapahoe,134
co,all_others,all_others,archuleta,111
co,all_others,all_others,baca,114
co,all_others,all_others,bent,114
co,all_others,all_others,boulder,114
co,all_others,boulder,boulder,134
co,all_others,all_others,broomfield,114
co,all_others,all_others,chaffee,111
co,all_others,all_others,cheyenne,114
co,all_others,all_others,clear_creek,112
co,all_others,all_others,conejos,111
co,all_others,all_others,costilla,111
co,all_others,all_others,crowley,114
co,all_others,all_others,custer,113
co,all_others,all_others,delta,111
co,all_others,all_others,denver,114
co,all_others,denver,denver,124
co,all_others,all_others,dolores,111
co,all_others,all_others,douglas,114
co,all_others,all_others,eagle,112
co,all_others,all_others,el_paso,114
co,all_others,colorado_springs,el_paso,134
co,all_others,all_others,elbert,114
co,all_others,all_others,fremont,113
co,all_others,all_others,garfield,112
co,all_others,all_others,gilpin,114
co,all_others,all_others,grand,112
co,all_others,all_others,gunnison,111
co,all_others,all_others,hinsdale,111
co,all_others,all_others,huerfano,113
co,all_others,all_others,jackson,112
co,all_others,all_others,jefferson,114
co,all_others,westminster,jefferson,134
co,all_others,all_others,kiowa,114
co,all_others,all_others,kit_carson,114
co,all_others,all_others,la_plata,111
co,all_others,all_others,lake,112
co,all_others,all_others,larimer,114
co,all_others,fort_collins,larimer,134
co,all_others,all_others,las_animas,113
co,all_others,all_others,lincoln,114
co,all_others,all_others,logan,114
co,all_others,all_others,mesa,111
co,all_others,all_others,mineral,111
co,all_others,all_others,moffat,112
co,all_others,all_others,montezuma,111
co,all_others,all_others,montrose,111
co,all_others,all_others,morgan,114
co,all_others,all_others,otero,114
co,all_others,all_others,ouray,111
co,all_others,all_others,park,112
co,all_others,all_others,phillips,114
co,all_others,all_others,pitkin,112
co,all_others,all_others,prowers,114
co,all_others,all_others,pueblo,113
co,all_others,pueblo,pueblo,133
co,all_others,all_others,rio_blanco,112
co,all_others,all_others,rio_grande,111
co,all_others,all_others,routt,112
co,all_others,all_others,saguache,111
co,all_others,all_others,san_juan,111
co,all_others,all_others,san_miguel,111
co,all_others,all_others,sedgwick,114
co,all_others,all_others,summit,112
co,all_others,all_others,teller,114
co,all_others,all_others,washington,114
co,all_others,all_others,weld,114
co,all_others,greeley,weld,134
co,all_others,all_others,yuma,114
ga,all_others,all_others,appling,113
ga,all_others,all_others,atkinson,113
ga,all_others,all_others,bacon,113
ga,all_others,all_others,baker,113
ga,all_others,all_others,baldwin,113
ga,all_others,all_others,banks,114
ga,all_others,all_others,barrow,114
ga,all_others,all_others,bartow,114
ga,all_others,all_others,ben_hill,113
ga,all_others,all_others,berrien,113
ga,all_others,all_others,bibb,113
ga,all_others,macon,bibb,123
ga,all_others,all_others,bleckley,113
ga,all_others,all_others,brantley,113
ga,all_others,all_others,brooks,113
ga,all_others,all_others,bryan_star,112
ga,all_others,all_others,bulloch,113
ga,all_others,all_others,burke,113
ga,all_others,all_others,butts,114
ga,all_others,all_others,calhoun,113
ga,all_others,all_others,camden,111
ga,all_others,beach_area,camden,112
ga,all_others,all_others,candler,113
ga,all_others,all_others,carroll,114
ga,all_others,all_others,catoosa,114
ga,all_others,all_others,charlton,113
ga,all_others,all_others,chatham,112
ga,all_others,savannah,chatham,122
ga,all_others,beach_area,chatham,111
ga,all_others,all_others,chattahoochee,113
ga,all_others,all_others,chattooga,114
ga,all_others,all_others,cherokee,114
ga,all_others,all_others,clarke,114
ga,all_others,all_others,clay,113
ga,all_others,all_others,clayton,114
ga,all_others,all_others,clinch,113
ga,all_others,all_others,cobb,114
ga,all_others,marietta,cobb,134
ga,all_others,all_others,coffee,113
ga,all_others,all_others,colquitt,113
ga,all_others,all_others,columbia,113
ga,all_others,all_others,cook,113
ga,all_others,all_others,coweta,114
ga,all_others,all_others,crawford,113
ga,all_others,all_others,crisp,113
ga,all_others,all_others,dade,114
ga,all_others,all_others,dawson,114
ga,all_others,all_others,decatur,113
ga,all_others,all_others,dekalb,114
ga,all_others,atlanta,dekalb,124
ga,all_others,decatur,dekalb,124
ga,all_others,all_others,dodge,113
ga,all_others,all_others,dooly,113
ga,all_others,all_others,dougherty,113
ga,all_others,albany,dougherty,133
ga,all_others,all_others,douglas,114
ga,all_others,all_others,early,113
ga,all_others,all_others,echols,113
ga,all_others,all_others,effingham,113
ga,all_others,all_others,elbert,113
ga,all_others,all_others,emanuel,113
ga,all_others,all_others,evans,113
ga,all_others,all_others,fannin,114
ga,all_others,all_others,fayette,114
ga,all_others,all_others,floyd,114
ga,all_others,all_others,forsyth,114
ga,all_others,all_others,franklin,114
ga,all_others,all_others,fulton,114
ga,all_others,atlanta,fulton,124
ga,all_others,east_point,fulton,134
ga,all_others,all_others,gilmer,114
ga,all_others,all_others,glascock,113
ga,all_others,all_others,glynn,112
ga,all_others,beach_area,glynn,111
ga,all_others,all_others,gordon,114
ga,all_others,all_others,grady,113
ga,all_others,all_others,greene,113
ga,all_others,all_others,gwinnett,114
ga,all_others,all_others,habersham,114
ga,all_others,all_others,hall,114
ga,all_others,all_others,hancock,113
ga,all_others,all_others,haralson,114
ga,all_others,all_others,harris,114
ga,all_others,all_others,hart,114
ga,all_others,all_others,heard,114
ga,all_others,all_others,henry,114
ga,all_others,all_others,houston,113
ga,all_others,warner_robins,houston,133
ga,all_others,all_others,irwin,113
ga,all_others,all_others,jackson,114
ga,all_others,all_others,jasper,113
ga,all_others,all_others,jeff_davis,113
ga,all_others,all_others,jefferson,113
ga,all_others,all_others,jenkins,113
ga,all_others,all_others,johnson,113
ga,all_others,all_others,jones,113
ga,all_others,all_others,lamar,114
ga,all_others,all_others,lanier,113
ga,all_others,all_others,laurens,113
ga,all_others,all_others,lee,113
ga,all_others,all_others,liberty,112
ga,all_others,beach_area,liberty,111
ga,all_others,all_others,lincoln,113
ga,all_others,all_others,long,113
ga,all_others,all_others,lowndes,113
ga,all_others,valdosta,lowndes,133
ga,all_others,all_others,lumpkin,114
ga,all_others,all_others,mcduffie,113
ga,all_others,all_others,mcintosh,112
ga,all_others,beach_area,mcintosh,111
ga,all_others,all_others,macon,113
ga,all_others,all_others,madison,114
ga,all_others,all_others,marion,113
ga,all_others,all_others,meriwether,114
ga,all_others,all_others,miller,113
ga,all_others,all_others,mitchell,113
ga,all_others,all_others,monroe,113
ga,all_others,all_others,montgomery,113
ga,all_others,all_others,morgan,113
ga,all_others,all_others,murray,114
ga,all_others,all_others,muscogee,114
ga,all_others,columbus,muscogee,134
ga,all_others,all_others,newton,114
ga,all_others,all_others,oconee,114
ga,all_others,all_others,oglethorpe,113
ga,all_others,all_others,paulding,114
ga,all_others,all_others,peach,113
ga,all_others,all_others,pickens,114
ga,all_others,all_others,pierce,113
ga,all_others,all_others,pike,114
ga,all_others,all_others,polk,114
ga,all_others,all_others,pulaski,113
ga,all_others,all_others,putnam,113
ga,all_others,all_others,quitman,113
ga,all_others,all_others,rabun,114
ga,all_others,all_others,randolph,113
ga,all_others,all_others,richmond,113
ga,all_others,augusta,richmond,123
ga,all_others,all_others,rockdale,114
ga,all_others,all_others,schley,113
ga,all_others,all_others,screven,113
ga,all_others,all_others,seminole,113
ga,all_others,all_others,spalding,114
ga,all_others,all_others,stephens,114
ga,all_others,all_others,stewart,113
ga,all_others,all_others,sumter,113
ga,all_others,all_others,talbot,113
ga,all_others,all_others,taliaferro,113
ga,all_others,all_others,tattnall,113
ga,all_others,all_others,taylor,113
ga,all_others,all_others,telfair,113
ga,all_others,all_others,terrell,113
ga,all_others,all_others,thomas,113
ga,all_others,all_others,tift,113
ga,all_others,all_others,toombs,113
ga,all_others,all_others,towns,114
ga,all_others,all_others,treutlen,113
ga,all_others,all_others,troup,114
ga,all_others,all_others,turner,113
ga,all_others,all_others,twiggs,113
ga,all_others,all_others,union,114
ga,all_others,all_others,upson,113
ga,all_others,all_others,walker,114
ga,all_others,all_others,walton,114
ga,all_others,all_others,ware,113
ga,all_others,all_others,warren,113
ga,all_others,all_others,washington,113
ga,all_others,all_others,wayne,113
ga,all_others,all_others,webster,113
ga,all_others,all_others,wheeler,113
ga,all_others,all_others,white,114
ga,all_others,all_others,whitfield,114
ga,all_others,all_others,wilcox,113
ga,all_others,all_others,wilkes,113
ga,all_others,all_others,wilkinson,113
ga,all_others,all_others,worth,113
id,all_others,all_others,ada,112
id,all_others,boise,ada,122
id,all_others,all_others,adams,112
id,all_others,all_others,bannock,112
id,all_others,pocatello,bannock,122
id,all_others,all_others,bear_lake,112
id,all_others,all_others,benewah,112
id,all_others,all_others,bingham,112
id,all_others,all_others,blaine,112
id,all_others,all_others,boise,112
id,all_others,all_others,bonner,112
id,all_others,all_others,bonneville,112
id,all_others,idaho_falls,bonneville,122
id,all_others,all_others,boundary,112
id,all_others,all_others,butte,112
id,all_others,all_others,camas,112
id,all_others,all_others,canyon,112
id,all_others,nampa,canyon,122
id,all_others,all_others,caribou,112
id,all_others,all_others,cassia,112
id,all_others,all_others,clark,111
id,all_others,all_others,clearwater,111
id,all_others,all_others,custer,111
id,all_others,all_others,elmore,112
id,all_others,all_others,franklin,112
id,all_others,all_others,fremont,111
id,all_others,all_others,gem,112
id,all_others,all_others,gooding,112
id,all_others,all_others,idaho,111
id,all_others,all_others,jefferson,112
id,all_others,all_others,jerome,112
id,all_others,all_others,kootenai,112
id,all_others,coeur_d_alene,kootenai,122
id,all_others,all_others,latah,112
id,all_others,all_others,lemhi,111
id,all_others,all_others,lewis,112
id,all_others,all_others,lincoln,112
id,all_others,all_others,madison,111
id,all_others,all_others,minidoka,112
id,all_others,all_others,nez_perce,112
id,all_others,lewiston,nez_perce,122
id,all_others,all_others,oneida,112
id,all_others,all_others,owyhee,112
id,all_others,all_others,payette,112
id,all_others,all_others,power,112
id,all_others,all_others,shoshone,112
id,all_others,all_others,teton,111
id,all_others,all_others,twin_falls,112
id,all_others,twin_falls,twin_falls,122
id,all_others,all_others,valley,111
id,all_others,all_others,washington,112
il,all_others,all_others,adams,113
il,all_others,quincy,adams,123
il,all_others,all_others,alexander,113
il,all_others,all_others,bond,112
il,all_others,all_others,boone,112
il,all_others,all_others,brown,113
il,all_others,all_others,bureau,112
il,all_others,all_others,calhoun,113
il,all_others,all_others,carroll,112
il,all_others,all_others,cass,112
il,all_others,all_others,champaign,112
il,all_others,champaign,champaign,132
il,all_others,rantoul,champaign,122
il,all_others,urbana,champaign,122
il,all_others,all_others,christian,112
il,all_others,all_others,clark,112
il,all_others,all_others,clay,112
il,all_others,all_others,clinton,112
il,all_others,all_others,coles,112
il,all_others,charleston,coles,122
il,all_others,matoon,coles,122
il,all_others,all_others,cook,114
il,all_others,arlington_heights,cook,124
il,all_others,bellwood,cook,124
il,all_others,berwyn,cook,124
il,all_others,blue_island,cook,124
il,all_others,bridgeview,cook,124
il,all_others,broadview,cook,134
il,all_others,brookfield,cook,124
il,all_others,buffalo_grove,cook,124
il,all_others,burbank,cook,124
il,all_others,calumet_city,cook,124
il,all_others,chicago,cook,144
il,all_others,chicago_heights,cook,124
il,all_others,cicero,cook,124
il,all_others,country_club_hills,cook,124
il,all_others,des_plaines,cook,124
il,all_others,dolton,cook,124
il,all_others,elk_grove_village,cook,124
il,all_others,elmwood_park,cook,124
il,all_others,evanston,cook,124
il,all_others,evergreen_park,cook,124
il,all_others,forest_park,cook,124
il,all_others,glenview,cook,124
il,all_others,hanover_park,cook,124
il,all_others,harvey,cook,124
il,all_others,hazel_crest,cook,124
il,all_others,hickory_hills,cook,124
il,all_others,hoffman_estates,cook,124
il,all_others,homewood,cook,124
il,all_others,lagrange,cook,124
il,all_others,lansing,cook,124
il,all_others,maywood,cook,124
il,all_others,melrose_park,cook,124
il,all_others,midlothian,cook,124
il,all_others,morton_grove,cook,124
il,all_others,mount_prospect,cook,124
il,all_others,niles,cook,124
il,all_others,norridge,cook,124
il,all_others,northbrook,cook,124
il,all_others,oak_forest,cook,124
il,all_others,oak_lawn,cook,124
il,all_others,oak_park,cook,124
il,all_others,orland_park,cook,124
il,all_others,palatine,cook,124
il,all_others,palos_hills,cook,124
il,all_others,park_forest,cook,124
il,all_others,park_ridge,cook,124
il,all_others,rolling_meadows,cook,124
il,all_others,schaumburg,cook,124
il,all_others,skokie,cook,124
il,all_others,south_holland,cook,124
il,all_others,tinley_park,cook,124
il,all_others,westchester,cook,124
il,all_others,wheeling,cook,124
il,all_others,wilmette,cook,124
il,all_others,winnetka,cook,124
il,all_others,all_others,crawford,112
il,all_others,all_others,cumberland,112
il,all_others,all_others,dekalb,112
il,all_others,dekalb,dekalb,122
il,all_others,all_others,de_witt,112
il,all_others,all_others,dougas,112
il,all_others,all_others,dupage,111
il,all_others,addison,dupage,121
il,all_others,carol_stream,dupage,121
il,all_others,darien,dupage,121
il,all_others,downers_grove,dupage,121
il,all_others,elmhurst,dupage,121
il,all_others,glen_ellyn,dupage,121
il,all_others,hinsdale,dupage,121
il,all_others,lisle,dupage,121
il,all_others,lombard,dupage,121
il,all_others,naperville,dupage,121
il,all_others,oak_brook,dupage,121
il,all_others,villa_park,dupage,121
il,all_others,wheaton,dupage,121
il,all_others,all_others,edgar,112
il,all_others,all_others,edwards,112
il,all_others,all_others,effingham,112
il,all_others,effingham,effingham,122
il,all_others,all_others,fayette,112
il,all_others,all_others,ford,112
il,all_others,all_others,franklin,112
il,all_others,all_others,fulton,113
il,all_others,all_others,gallatin,113
il,all_others,all_others,greene,112
il,all_others,all_others,grundy,112
il,all_others,all_others,hamilton,112
il,all_others,all_others,hancock,113
il,all_others,all_others,hardin,113
il,all_others,all_others,henderson,113
il,all_others,all_others,henry,112
il,all_others,all_others,iroquois,112
il,all_others,all_others,jackson,113
il,all_others,carbondale,jackson,123
il,all_others,all_others,jasper,112
il,all_others,all_others,jefferson,112
il,all_others,mount_vernon,jefferson,122
il,all_others,all_others,jersey,112
il,all_others,all_others,jo_daviess,113
il,all_others,all_others,johnson,113
il,all_others,all_others,kane,111
il,all_others,aurora,kane,121
il,all_others,carpentersville,kane,121
il,all_others,elgin,kane,121
il,all_others,st_charles,kane,121
il,all_others,all_others,kankakee,112
il,all_others,kankakee,kankakee,122
il,all_others,all_others,kendall,112
il,all_others,all_others,knox,112
il,all_others,galesburg,knox,122
il,all_others,all_others,lake,111
il,all_others,deerfield,lake,121
il,all_others,highland_park,lake,121
il,all_others,lake_forest,lake,121
il,all_others,libertyville,lake,121
il,all_others,mundelein,lake,121
il,all_others,waukegan,lake,121
il,all_others,all_others,la_salle,112
il,all_others,all_others,lawrence,112
il,all_others,all_others,lee,112
il,all_others,dixon,lee,122
il,all_others,all_others,livingston,112
il,all_others,all_others,logan,112
il,all_others,all_others,mcdonough,113
il,all_others,macomb,mcdonough,123
il,all_others,all_others,mchenry,112
il,all_others,all_others,mclean,112
il,all_others,bloomington,mclean,122
il,all_others,normal,mclean,122
il,all_others,all_others,mason,112
il,all_others,decatur,mason,122
il,all_others,all_others,macoupin,112
il,all_others,all_others,madison,112
il,all_others,alton,madison,122
il,all_others,granite_city,madison,122
il,all_others,all_others,marion,112
il,all_others,all_others,marshall,112
il,all_others,all_others,mason,112
il,all_others,all_others,massac,113
il,all_others,all_others,menard,112
il,all_others,all_others,mercer,112
il,all_others,all_others,monroe,112
il,all_others,all_others,montgomery,112
il,all_others,jacksonville,montgomery,122
il,all_others,all_others,moultrie,112
il,all_others,all_others,ogle,112
il,all_others,all_others,peoria,112
il,all_others,peoria,peoria,122
il,all_others,all_others,perry,112
il,all_others,all_others,piatt,112
il,all_others,all_others,pike,113
il,all_others,all_others,pope,113
il,all_others,all_others,pulaski,113
il,all_others,all_others,putnam,112
il,all_others,all_others,randolph,112
il,all_others,all_others,richland,112
il,all_others,all_others,rock_island,112
il,all_others,east_moline,rock_island,122
il,all_others,moline,rock_island,122
il,all_others,rock_island,rock_island,122
il,all_others,all_others,st_clair,112
il,all_others,belleville,st_clair,122
il,all_others,east_st_louis,st_clair,122
il,all_others,all_others,saline,112
il,all_others,all_others,sangamon,112
il,all_others,springfield,sangamon,132
il,all_others,all_others,schuyler,113
il,all_others,all_others,scott,112
il,all_others,all_others,shelby,112
il,all_others,all_others,stark,112
il,all_others,all_others,stephenson,112
il,all_others,all_others,stephenson,122
il,all_others,all_others,tazewell,112
il,all_others,pekin,tazewell,122
il,all_others,all_others,union,113
il,all_others,all_others,vermilion,112
il,all_others,danville,vermilion,122
il,all_others,all_others,wabash,112
il,all_others,all_others,warren,112
il,all_others,all_others,washington,112
il,all_others,all_others,wayne,112
il,all_others,all_others,white,112
il,all_others,all_others,whiteside,112
il,all_others,sterling,whiteside,122
il,all_others,all_others,will,112
il,all_others,boilingbrook,will,122
il,all_others,joliet,will,122
il,all_others,all_others,williamson,112
il,all_others,all_others,winnebago,112
il,all_others,rockford,winnebago,132
il,all_others,all_others,woodford,112
in,all_others,all_others,adams,111
in,all_others,all_others,allen,111
in,all_others,fort_wayne,allen,131
in,all_others,all_others,bartholomew,112
in,all_others,all_others,benton,111
in,all_others,all_others,blackford,111
in,all_others,all_others,boone,111
in,all_others,all_others,brown,112
in,all_others,all_others,carroll,111
in,all_others,all_others,cass,111
in,all_others,all_others,clark,112
in,all_others,all_others,clay,113
in,all_others,all_others,clinton,111
in,all_others,all_others,crawford,112
in,all_others,all_others,daviess,113
in,all_others,all_others,dearborn,112
in,all_others,all_others,decatur,111
in,all_others,all_others,de_kalb,111
in,all_others,all_others,delaware,111
in,all_others,all_others,dubois,112
in,all_others,all_others,elkhart,111
in,all_others,elkhart,elkhart,131
in,all_others,all_others,fayette,111
in,all_others,all_others,floyd,112
in,all_others,all_others,fountain,111
in,all_others,all_others,franklin,112
in,all_others,all_others,fulton,111
in,all_others,all_others,gibson,113
in,all_others,all_others,grant,111
in,all_others,all_others,greene,112
in,all_others,all_others,hamilton,111
in,all_others,all_others,hancock,111
in,all_others,all_others,harrison,112
in,all_others,all_others,hendricks,111
in,all_others,all_others,henry,111
in,all_others,all_others,howard,111
in,all_others,kokomo,howard,131
in,all_others,all_others,huntington,111
in,all_others,all_others,jackson,112
in,all_others,all_others,jasper,111
in,all_others,all_others,jay,111
in,all_others,all_others,jefferson,112
in,all_others,all_others,jennings,112
in,all_others,all_others,johnson,111
in,all_others,all_others,knox,113
in,all_others,all_others,kosciusko,111
in,all_others,all_others,lagrange,111
in,all_others,all_others,lake,111
in,all_others,east_chicago,lake,131
in,all_others,gary,lake,131
in,all_others,hammond,lake,131
in,all_others,all_others,la_porte,111
in,all_others,michigan_city,la_porte,131
in,all_others,all_others,lawrence,112
in,all_others,all_others,madison,111
in,all_others,anderson,madison,131
in,all_others,all_others,marion,111
in,all_others,indianapolis,marion,121
in,all_others,all_others,marshall,111
in,all_others,all_others,martin,112
in,all_others,all_others,miami,111
in,all_others,all_others,monroe,112
in,all_others,all_others,montgomery,111
in,all_others,all_others,morgan,112
in,all_others,all_others,newton,111
in,all_others,all_others,noble,111
in,all_others,all_others,ohio,112
in,all_others,all_others,orange,112
in,all_others,all_others,owen,112
in,all_others,all_others,parke,112
in,all_others,all_others,perry,112
in,all_others,all_others,pike,113
in,all_others,all_others,porter,111
in,all_others,all_others,posey,113
in,all_others,all_others,pulaski,111
in,all_others,all_others,putnam,112
in,all_others,all_others,randolph,111
in,all_others,all_others,ripley,112
in,all_others,all_others,rush,111
in,all_others,all_others,st_joseph,111
in,all_others,mishawaka,st_joseph,131
in,all_others,south_bend,st_joseph,131
in,all_others,all_others,scott,112
in,all_others,all_others,shelby,111
in,all_others,all_others,spencer,113
in,all_others,all_others,starke,111
in,all_others,all_others,steuben,111
in,all_others,all_others,sullivan,113
in,all_others,all_others,switzerland,112
in,all_others,all_others,tippecanoe,111
in,all_others,all_others,tipton,111
in,all_others,all_others,union,111
in,all_others,all_others,vanderburgh,113
in,all_others,evansville,vanderburgh,133
in,all_others,all_others,vermillion,113
in,all_others,all_others,vigo,113
in,all_others,terre_haute,vigo,133
in,all_others,all_others,wabash,111
in,all_others,all_others,warren,111
in,all_others,all_others,warrick,113
in,all_others,all_others,washington,112
in,all_others,all_others,wayne,111
in,all_others,richmond,wayne,131
in,all_others,all_others,wells,111
in,all_others,all_others,white,111
in,all_others,all_others,whitley,111
ia,all_others,all_others,adair,113
ia,all_others,all_others,adams,113
ia,all_others,all_others,allamakee,111
ia,all_others,all_others,appanoose,113
ia,all_others,all_others,audubon,113
ia,all_others,all_others,benton,112
ia,all_others,all_others,black_hawk,112
ia,all_others,cedar_falls,black_hawk,122
ia,all_others,waterloo,black_hawk,122
ia,all_others,all_others,boone,112
ia,all_others,all_others,bremer,112
ia,all_others,all_others,buchanan,112
ia,all_others,all_others,buena_vista,112
ia,all_others,all_others,butler,112
ia,all_others,all_others,calhoun,112
ia,all_others,all_others,carroll,112
ia,all_others,all_others,cass,113
ia,all_others,all_others,cedar,113
ia,all_others,all_others,cerro_gordo,112
ia,all_others,mason_city,cerro_gordo,122
ia,all_others,all_others,cherokee,113
ia,all_others,all_others,chickasaw,112
ia,all_others,all_others,clarke,113
ia,all_others,all_others,clay,112
ia,all_others,all_others,clayton,111
ia,all_others,all_others,clinton,112
ia,all_others,all_others,crawford,113
ia,all_others,all_others,dallas,112
ia,all_others,all_others,davis,113
ia,all_others,all_others,decatur,113
ia,all_others,all_others,delaware,112
ia,all_others,all_others,des_moines,113
ia,all_others,burlington,des_moines,123
ia,all_others,all_others,dickinson,112
ia,all_others,all_others,dubuque,111
ia,all_others,dubuque,dubuque,121
ia,all_others,all_others,emmet,112
ia,all_others,all_others,fayette,112
ia,all_others,all_others,floyd,112
ia,all_others,all_others,franklin,112
ia,all_others,all_others,fremont,113
ia,all_others,all_others,greene,112
ia,all_others,all_others,grundy,112
ia,all_others,all_others,guthrie,113
ia,all_others,all_others,hamilton,112
ia,all_others,all_others,hancock,112
ia,all_others,all_others,hardin,112
ia,all_others,all_others,harrison,113
ia,all_others,all_others,henry,113
ia,all_others,all_others,howard,112
ia,all_others,all_others,humboldt,112
ia,all_others,all_others,ida,113
ia,all_others,all_others,iowa,112
ia,all_others,all_others,jackson,111
ia,all_others,all_others,jasper,112
ia,all_others,all_others,jefferson,113
ia,all_others,all_others,johnson,112
ia,all_others,all_others,jones,112
ia,all_others,all_others,keokuk,113
ia,all_others,all_others,kossuth,112
ia,all_others,all_others,lee,113
ia,all_others,all_others,linn,112
ia,all_others,cedarrapids,linn,122
ia,all_others,all_others,louisa,113
ia,all_others,all_others,lucas,113
ia,all_others,all_others,lyon,113
ia,all_others,all_others,madison,113
ia,all_others,all_others,mahaska,113
ia,all_others,all_others,marion,112
ia,all_others,all_others,marshall,112
ia,all_others,all_others,mills,113
ia,all_others,all_others,mitchell,112
ia,all_others,all_others,monona,113
ia,all_others,all_others,monroe,113
ia,all_others,all_others,montgomery,113
ia,all_others,all_others,muscatine,113
ia,all_others,all_others,o_brien,112
ia,all_others,all_others,osceola,113
ia,all_others,all_others,page,113
ia,all_others,all_others,palo_alto,112
ia,all_others,all_others,plymouth,113
ia,all_others,all_others,pocahontas,112
ia,all_others,all_others,polk,112
ia,all_others,des_moines,polk,122
ia,all_others,all_others,pottawattamie,113
ia,all_others,council_bluffs,pottawattamie,123
ia,all_others,all_others,poweshiek,112
ia,all_others,all_others,ringgold,113
ia,all_others,all_others,sac,113
ia,all_others,all_others,scott,113
ia,all_others,davenport,scott,123
ia,all_others,all_others,shelby,113
ia,all_others,all_others,sioux,113
ia,all_others,all_others,story,112
ia,all_others,all_others,tama,112
ia,all_others,all_others,taylor,113
ia,all_others,all_others,union,113
ia,all_others,all_others,van_buren,113
ia,all_others,all_others,wapello,113
ia,all_others,all_others,warren,113
ia,all_others,all_others,washington,112
ia,all_others,all_others,wayne,113
ia,all_others,all_others,webster,112
ia,all_others,fortdodge,webster,122
ia,all_others,all_others,winnebago,112
ia,all_others,all_others,winneshiek,111
ia,all_others,all_others,woodbury,113
ia,all_others,sioux_city,woodbury,123
ia,all_others,all_others,worth,112
ia,all_others,all_others,wright,112
ks,all_others,all_others,allen,112
ks,all_others,all_others,anderson,112
ks,all_others,all_others,atchison,113
ks,all_others,all_others,barber,112
ks,all_others,all_others,barton,112
ks,all_others,all_others,bourbon,113
ks,all_others,all_others,brown,113
ks,all_others,all_others,butler,111
ks,all_others,all_others,chase,111
ks,all_others,all_others,chautaugua,111
ks,all_others,all_others,cherokee,112
ks,all_others,all_others,cheyenne,114
ks,all_others,all_others,clark,112
ks,all_others,all_others,clay,112
ks,all_others,all_others,cloud,112
ks,all_others,all_others,coffey,111
ks,all_others,all_others,comanche,112
ks,all_others,all_others,cowley,111
ks,all_others,all_others,crawford,112
ks,all_others,all_others,decatur,114
ks,all_others,all_others,dickinson,111
ks,all_others,all_others,doniphan,113
ks,all_others,all_others,douglas,112
ks,all_others,all_others,edwards,112
ks,all_others,all_others,elk,111
ks,all_others,all_others,ellis,112
ks,all_others,all_others,ellsworth,112
ks,all_others,all_others,finney,114
ks,all_others,all_others,ford,112
ks,all_others,all_others,franklin,112
ks,all_others,all_others,geary,111
ks,all_others,all_others,gove,112
ks,all_others,all_others,graham,112
ks,all_others,all_others,grant,114
ks,all_others,all_others,gray,114
ks,all_others,all_others,greeley,114
ks,all_others,all_others,greenwood,111
ks,all_others,all_others,hamilton,114
ks,all_others,all_others,harper,112
ks,all_others,all_others,harvey,111
ks,all_others,all_others,haskell,114
ks,all_others,all_others,hodgeman,114
ks,all_others,all_others,jackson,112
ks,all_others,all_others,jefferson,113
ks,all_others,all_others,jewell,112
ks,all_others,all_others,johnson,113
ks,all_others,all_others,kearny,114
ks,all_others,all_others,kingman,111
ks,all_others,all_others,kiowa,112
ks,all_others,all_others,labette,111
ks,all_others,all_others,lane,114
ks,all_others,all_others,leavenworth,113
ks,all_others,all_others,lincoln,112
ks,all_others,all_others,linn,112
ks,all_others,all_others,logan,114
ks,all_others,all_others,lyon,111
ks,all_others,all_others,marion,111
ks,all_others,all_others,marshall,113
ks,all_others,all_others,mcpherson,111
ks,all_others,all_others,meade,114
ks,all_others,all_others,miami,112
ks,all_others,all_others,mitchell,112
ks,all_others,all_others,montgomery,111
ks,all_others,all_others,morris,111
ks,all_others,all_others,morton,114
ks,all_others,all_others,nemaha,113
ks,all_others,all_others,neosho,112
ks,all_others,all_others,ness,112
ks,all_others,all_others,norton,112
ks,all_others,all_others,osage,111
ks,all_others,all_others,osborne,112
ks,all_others,all_others,ottawa,112
ks,all_others,all_others,pawnee,112
ks,all_others,all_others,phillips,112
ks,all_others,all_others,pottawatomie,112
ks,all_others,all_others,pratt,112
ks,all_others,all_others,rawlins,114
ks,all_others,all_others,reno,111
ks,all_others,all_others,republic,112
ks,all_others,all_others,rice,112
ks,all_others,all_others,riley,112
ks,all_others,all_others,rooks,112
ks,all_others,all_others,rush,112
ks,all_others,all_others,russell,112
ks,all_others,all_others,saline,111
ks,all_others,all_others,scott,114
ks,all_others,all_others,sedgwick,111
ks,all_others,all_others,seward,114
ks,all_others,all_others,shawnee,112
ks,all_others,all_others,sheridan,112
ks,all_others,all_others,sherman,114
ks,all_others,all_others,smith,112
ks,all_others,all_others,stafford,112
ks,all_others,all_others,stanton,114
ks,all_others,all_others,stevens,114
ks,all_others,all_others,sumner,111
ks,all_others,all_others,thomas,114
ks,all_others,all_others,trego,112
ks,all_others,all_others,wabaunsee,112
ks,all_others,all_others,wallace,114
ks,all_others,all_others,washington,112
ks,all_others,all_others,wichita,114
ks,all_others,all_others,wilson,111
ks,all_others,all_others,woodson,111
ks,all_others,all_others,wyandotte,113
ky,all_others,all_others,adair,112
ky,all_others,all_others,allen,112
ky,all_others,all_others,anderson,112
ky,all_others,all_others,ballard,112
ky,all_others,all_others,barren,112
ky,all_others,all_others,bath,111
ky,all_others,all_others,bell,111
ky,all_others,all_others,boone,112
ky,all_others,all_others,bourbon,112
ky,all_others,all_others,boyd,111
ky,all_others,ashland,boyd,141
ky,all_others,all_others,boyle,112
ky,all_others,all_others,bracken,112
ky,all_others,all_others,breathitt,111
ky,all_others,all_others,breckinridge,112
ky,all_others,all_others,bullitt,112
ky,all_others,all_others,butler,112
ky,all_others,all_others,caldwell,112
ky,all_others,all_others,calloway,112
ky,all_others,all_others,campbell,112
ky,all_others,all_others,carlisle,112
ky,all_others,all_others,carroll,112
ky,all_others,all_others,carter,111
ky,all_others,all_others,casey,112
ky,all_others,all_others,christian,112
ky,all_others,hopkinsville,christian,142
ky,all_others,all_others,clark,112
ky,all_others,all_others,clay,111
ky,all_others,all_others,clinton,111
ky,all_others,all_others,crittenden,112
ky,all_others,all_others,cumberland,111
ky,all_others,all_others,daviess,112
ky,all_others,owensboro,daviess,142
ky,all_others,all_others,edmonson,112
ky,all_others,all_others,elliott,111
ky,all_others,all_others,estill,111
ky,all_others,all_others,fayette,132
ky,all_others,all_others,fleming,111
ky,all_others,all_others,floyd,111
ky,all_others,all_others,franklin,112
ky,all_others,frankfort,franklin,142
ky,all_others,all_others,fulton,112
ky,all_others,all_others,gallatin,112
ky,all_others,all_others,garrard,112
ky,all_others,all_others,grant,112
ky,all_others,all_others,graves,112
ky,all_others,all_others,grayson,112
ky,all_others,all_others,green,112
ky,all_others,all_others,greenup,111
ky,all_others,all_others,hancock,112
ky,all_others,all_others,hardin,112
ky,all_others,all_others,harlan,111
ky,all_others,all_others,harrison,112
ky,all_others,all_others,hart,112
ky,all_others,all_others,henderson,112
ky,all_others,all_others,henry,112
ky,all_others,all_others,hickman,112
ky,all_others,all_others,hopkins,112
ky,all_others,all_others,jackson,111
ky,all_others,all_others,jefferson,112
ky,all_others,louisville,jefferson,122
ky,all_others,pleasure_ridge_pk,jefferson,142
ky,all_others,all_others,jessamine,112
ky,all_others,all_others,johnson,111
ky,all_others,all_others,kenton,112
ky,all_others,covington,kenton,142
ky,all_others,all_others,knott,111
ky,all_others,all_others,knox,111
ky,all_others,all_others,larue,112
ky,all_others,all_others,laurel,111
ky,all_others,all_others,lawrence,111
ky,all_others,all_others,lee,111
ky,all_others,all_others,leslie,111
ky,all_others,all_others,letcher,111
ky,all_others,all_others,lewis,111
ky,all_others,all_others,lincoln,112
ky,all_others,all_others,livingston,112
ky,all_others,all_others,logan,112
ky,all_others,all_others,lyon,112
ky,all_others,all_others,mccracken,112
ky,all_others,paducah,mccracken,142
ky,all_others,all_others,mccreary,111
ky,all_others,all_others,mclean,112
ky,all_others,all_others,madison,112
ky,all_others,all_others,magoffin,111
ky,all_others,all_others,marion,112
ky,all_others,all_others,marshall,112
ky,all_others,all_others,martin,111
ky,all_others,all_others,mason,112
ky,all_others,all_others,meade,112
ky,all_others,all_others,menifee,111
ky,all_others,all_others,mercer,112
ky,all_others,all_others,metcalfe,112
ky,all_others,all_others,monroe,111
ky,all_others,all_others,montgomery,112
ky,all_others,all_others,morgan,111
ky,all_others,all_others,muhlenberg,112
ky,all_others,all_others,nelson,112
ky,all_others,all_others,nicholas,112
ky,all_others,all_others,ohio,112
ky,all_others,all_others,oldham,112
ky,all_others,all_others,owen,112
ky,all_others,all_others,owsley,111
ky,all_others,all_others,pendleton,112
ky,all_others,all_others,perry,111
ky,all_others,all_others,pike,111
ky,all_others,all_others,powell,111
ky,all_others,all_others,pulaski,111
ky,all_others,all_others,robertson,112
ky,all_others,all_others,rockcastle,111
ky,all_others,all_others,rowan,111
ky,all_others,all_others,russell,111
ky,all_others,all_others,scott,112
ky,all_others,all_others,shelby,112
ky,all_others,all_others,simpson,112
ky,all_others,all_others,spencer,112
ky,all_others,all_others,taylor,112
ky,all_others,all_others,todd,112
ky,all_others,all_others,trigg,112
ky,all_others,all_others,trimble,112
ky,all_others,all_others,union,112
ky,all_others,all_others,warren,112
ky,all_others,bowling_green,warren,142
ky,all_others,all_others,washington,112
ky,all_others,all_others,wayne,111
ky,all_others,all_others,webster,112
ky,all_others,all_others,whitley,111
ky,all_others,all_others,wolfe,111
ky,all_others,all_others,woodford,112
mi,all_others,all_others,alcona,113
mi,all_others,all_others,alger,114
mi,all_others,all_others,allegan,111
mi,all_others,all_others,alpena,114
mi,all_others,all_others,antrim,113
mi,all_others,all_others,arenac,113
mi,all_others,all_others,baraga,114
mi,all_others,all_others,barry,111
mi,all_others,all_others,bay,113
mi,all_others,bay_city,bay,133
mi,all_others,all_others,benzie,113
mi,all_others,all_others,berrien,111
mi,all_others,all_others,branch,111
mi,all_others,all_others,calhoun,111
mi,all_others,battle_creek,calhoun,131
mi,all_others,all_others,cass,111
mi,all_others,all_others,charlevoix,113
mi,all_others,all_others,cheboygan,113
mi,all_others,all_others,chippewa,114
mi,all_others,all_others,clare,113
mi,all_others,all_others,clinton,111
mi,all_others,lansing,clinton,131
mi,all_others,all_others,crawford,113
mi,all_others,all_others,delta,113
mi,all_others,all_others,dickinson,113
mi,all_others,all_others,eaton,111
mi,all_others,lansing,eaton,131
mi,all_others,all_others,emmet,113
mi,all_others,all_others,genesee,112
mi,all_others,flint,genesee,132
mi,all_others,all_others,gladwin,113
mi,all_others,all_others,gogebic,113
mi,all_others,all_others,grand_traverse,113
mi,all_others,all_others,gratiot,112
mi,all_others,all_others,hillsdale,111
mi,all_others,all_others,houghton,114
mi,all_others,all_others,huron,113
mi,all_others,all_others,ingham,111
mi,all_others,lansing,ingham,131
mi,all_others,all_others,ionia,111
mi,all_others,all_others,iosco,113
mi,all_others,all_others,iron,113
mi,all_others,all_others,isabella,113
mi,all_others,all_others,jackson,111
mi,all_others,jackson,jackson,131
mi,all_others,all_others,kalamazoo,111
mi,all_others,kalamazoo,kalamazoo,131
mi,all_others,all_others,kalkaska,113
mi,all_others,all_others,kent,112
mi,all_others,grand_rapids,kent,132
mi,all_others,all_others,keweenaw,114
mi,all_others,all_others,lake,113
mi,all_others,all_others,lapeer,112
mi,all_others,all_others,leelanau,113
mi,all_others,all_others,lenawee,111
mi,all_others,all_others,livingston,112
mi,all_others,all_others,luce,114
mi,all_others,all_others,mackinac,114
mi,all_others,all_others,macomb,113
mi,all_others,sterling_heights,macomb,133
mi,all_others,warren,macomb,133
mi,all_others,all_others,manistee,113
mi,all_others,all_others,marquette,114
mi,all_others,all_others,mason,113
mi,all_others,all_others,mecosta,113
mi,all_others,all_others,menominee,113
mi,all_others,all_others,midland,113
mi,all_others,all_others,missaukee,113
mi,all_others,all_others,monroe,111
mi,all_others,all_others,montcalm,112
mi,all_others,all_others,montmorency,113
mi,all_others,all_others,muskegon,112
mi,all_others,muskegon,muskegon,132
mi,all_others,all_others,newaygo,112
mi,all_others,all_others,oakland,112
mi,all_others,ferndale,oakland,132
mi,all_others,pontiac,oakland,132
mi,all_others,royal_oak,oakland,132
mi,all_others,southfield,oakland,132
mi,all_others,all_others,oceana,113
mi,all_others,all_others,ogemaw,113
mi,all_others,all_others,ontonagon,114
mi,all_others,all_others,osceola,113
mi,all_others,all_others,oscoda,113
mi,all_others,all_others,otsego,113
mi,all_others,all_others,ottawa,111
mi,all_others,all_others,presque_isle,114
mi,all_others,all_others,roscommon,113
mi,all_others,all_others,saginaw,112
mi,all_others,saginaw,saginaw,132
mi,all_others,all_others,st_clair,113
mi,all_others,port_huron,st_clair,133
mi,all_others,all_others,st_joseph,111
mi,all_others,all_others,sanilac,113
mi,all_others,all_others,schoolcraft,114
mi,all_others,all_others,shiawassee,112
mi,all_others,all_others,tuscola,113
mi,all_others,all_others,van_buren,111
mi,all_others,all_others,washtenaw,111
mi,all_others,ann_arbor,washtenaw,111
mi,all_others,all_others,wayne,113
mi,all_others,dearborn,wayne,133
mi,all_others,dearborn_heights,wayne,133
mi,all_others,detroit,wayne,123
mi,all_others,highland_park,wayne,133
mi,all_others,livonia,wayne,133
mi,all_others,trenton,wayne,133
mi,all_others,wyandotte,wayne,133
mi,all_others,all_others,wexford,113
mn,all_others,all_others,aitkin,113
mn,all_others,all_others,anoka,112
mn,all_others,fridley,anoka,142
mn,all_others,all_others,becker,115
mn,all_others,all_others,beltrami,115
mn,all_others,all_others,benton,113
mn,all_others,st_cloud,benton,143
mn,all_others,all_others,big_stone,113
mn,all_others,all_others,blue_earth,111
mn,all_others,mankato,blue_earth,141
mn,all_others,all_others,brown,111
mn,all_others,all_others,carlton,114
mn,all_others,all_others,carver,112
mn,all_others,all_others,cass,115
mn,all_others,all_others,chippewa,112
mn,all_others,all_others,chisago,113
mn,all_others,all_others,clay,115
mn,all_others,moorhead,clay,145
mn,all_others,all_others,clearwater,115
mn,all_others,all_others,cook,114
mn,all_others,all_others,cottonwood,111
mn,all_others,all_others,crow_wing,113
mn,all_others,all_others,dakota,112
mn,all_others,all_others,dodge,111
mn,all_others,all_others,douglas,113
mn,all_others,all_others,faribault,111
mn,all_others,all_others,fillmore,112
mn,all_others,all_others,freeborn,111
mn,all_others,all_others,goodhue,112
mn,all_others,red_wing,goodhue,142
mn,all_others,all_others,grant,113
mn,all_others,all_others,hennepin,112
mn,all_others,bloomington,hennepin,142
mn,all_others,minneapolis,hennepin,122
mn,all_others,st_louis_park,hennepin,142
mn,all_others,all_others,houston,115
mn,all_others,all_others,hubbard,115
mn,all_others,all_others,isanti,112
mn,all_others,all_others,itasca,115
mn,all_others,all_others,jackson,111
mn,all_others,all_others,kanabec,113
mn,all_others,all_others,kandiyohi,112
mn,all_others,willmar,kandiyohi,142
mn,all_others,all_others,kittson,115
mn,all_others,all_others,koochiching,115
mn,all_others,all_others,lac_qui_parle,112
mn,all_others,all_others,lake,114
mn,all_others,all_others,lake_of_the_woods,115
mn,all_others,all_others,le_sueur,111
mn,all_others,all_others,lincoln,112
mn,all_others,all_others,lyon,112
mn,all_others,all_others,mcleod,112
mn,all_others,all_others,mahnomen,115
mn,all_others,all_others,marshall,115
mn,all_others,all_others,martin,111
mn,all_others,all_others,meeker,112
mn,all_others,all_others,mille_lacs,113
mn,all_others,all_others,morrison,113
mn,all_others,all_others,mower,111
mn,all_others,all_others,murray,111
mn,all_others,all_others,nicollet,111
mn,all_others,mankato,nicollet,141
mn,all_others,all_others,nobles,111
mn,all_others,all_others,norman,115
mn,all_others,all_others,olmstead,112
mn,all_others,rochester,olmstead,142
mn,all_others,all_others,otter_tail,113
mn,all_others,all_others,pennington,115
mn,all_others,all_others,pine,113
mn,all_others,all_others,pipestone,112
mn,all_others,all_others,polk,115
mn,all_others,all_others,pope,113
mn,all_others,all_others,ramsey,112
mn,all_others,mounds_view,ramsey,142
mn,all_others,st_paul,ramsey,132
mn,all_others,all_others,red_lake,115
mn,all_others,all_others,redwood,112
mn,all_others,all_others,renville,112
mn,all_others,all_others,rice,111
mn,all_others,all_others,rock,112
mn,all_others,all_others,roseau,115
mn,all_others,all_others,st_louis,114
mn,all_others,duluth,st_louis,144
mn,all_others,all_others,scott,112
mn,all_others,all_others,sherburne,112
mn,all_others,st_cloud,sherburne,142
mn,all_others,all_others,sibley,111
mn,all_others,all_others,stearns,113
mn,all_others,st_cloud,stearns,143
mn,all_others,all_others,steele,111
mn,all_others,all_others,stevens,113
mn,all_others,all_others,swift,113
mn,all_others,all_others,todd,113
mn,all_others,all_others,traverse,113
mn,all_others,all_others,wabasha,112
mn,all_others,all_others,wadena,113
mn,all_others,all_others,waseca,111
mn,all_others,all_others,washington,113
mn,all_others,all_others,watonwan,111
mn,all_others,all_others,wilkin,115
mn,all_others,all_others,winona,115
mn,all_others,winona,winona,145
mn,all_others,all_others,wright,112
mn,all_others,all_others,yellow_medicine,112
ms,all_others,all_others,adams,114
ms,all_others,all_others,alcorn,114
ms,all_others,all_others,amite,113
ms,all_others,all_others,attala,114
ms,all_others,all_others,benton,114
ms,all_others,all_others,bolivar,114
ms,all_others,all_others,calhoun,114
ms,all_others,all_others,carroll,114
ms,all_others,all_others,chickasaw,114
ms,all_others,all_others,choctaw,114
ms,all_others,all_others,claiborne,114
ms,all_others,all_others,clarke,114
ms,all_others,all_others,clay,114
ms,all_others,all_others,coahoma,114
ms,all_others,all_others,copiah,114
ms,all_others,all_others,covington,114
ms,all_others,all_others,desoto,114
ms,all_others,all_others,forrest,113
ms,all_others,all_others,franklin,114
ms,all_others,all_others,george,112
ms,all_others,all_others,greene,113
ms,all_others,all_others,grenada,114
ms,all_others,all_others,hancock,112
ms,z_39520,all_others,hancock,111
ms,z_39521,all_others,hancock,111
ms,z_39525,all_others,hancock,111
ms,z_39558,all_others,hancock,111
ms,z_39572,all_others,hancock,111
ms,z_39576,all_others,hancock,111
ms,all_others,all_others,harrison,112
ms,z_39501,all_others,harrison,111
ms,z_39502,all_others,harrison,111
ms,z_39505,all_others,harrison,111
ms,z_39506,all_others,harrison,111
ms,z_39507,all_others,harrison,111
ms,z_39530,all_others,harrison,111
ms,z_39531,all_others,harrison,111
ms,z_39532,all_others,harrison,111
ms,z_39533,all_others,harrison,111
ms,z_39534,all_others,harrison,111
ms,z_39535,all_others,harrison,111
ms,z_39540,all_others,harrison,111
ms,z_39560,all_others,harrison,111
ms,z_39571,all_others,harrison,111
ms,all_others,all_others,hinds,114
ms,all_others,all_others,holmes,114
ms,all_others,all_others,humphreys,114
ms,all_others,all_others,issaquena,114
ms,all_others,all_others,itawamba,114
ms,all_others,all_others,jackson,112
ms,z_39552,all_others,jackson,111
ms,z_39553,all_others,jackson,111
ms,z_39563,all_others,jackson,111
ms,z_39564,all_others,jackson,111
ms,z_39566,all_others,jackson,111
ms,z_39567,all_others,jackson,111
ms,z_39568,all_others,jackson,111
ms,z_39569,all_others,jackson,111
ms,z_39581,all_others,jackson,111
ms,z_39595,all_others,jackson,111
ms,all_others,all_others,jasper,114
ms,all_others,all_others,jefferson,114
ms,all_others,all_others,jefferson_davis,114
ms,all_others,all_others,jones,114
ms,all_others,all_others,kemper,114
ms,all_others,all_others,lafayette,114
ms,all_others,all_others,lamar,113
ms,all_others,all_others,lauderdale,114
ms,all_others,all_others,lawrence,114
ms,all_others,all_others,leake,114
ms,all_others,all_others,lee,114
ms,all_others,all_others,leflore,114
ms,all_others,all_others,lincoln,114
ms,all_others,all_others,lowndes,114
ms,all_others,all_others,madison,114
ms,all_others,all_others,marion,113
ms,all_others,all_others,marshall,114
ms,all_others,all_others,monroe,114
ms,all_others,all_others,montgomery,114
ms,all_others,all_others,neshoba,114
ms,all_others,all_others,newton,114
ms,all_others,all_others,noxubee,114
ms,all_others,all_others,oktibbeha,114
ms,all_others,all_others,panola,114
ms,all_others,all_others,pearl_river,112
ms,all_others,all_others,perry,113
ms,all_others,all_others,pike,113
ms,all_others,all_others,pontotoc,114
ms,all_others,all_others,prentiss,114
ms,all_others,all_others,quitman,114
ms,all_others,all_others,rankin,114
ms,all_others,all_others,scott,114
ms,all_others,all_others,sharkey,114
ms,all_others,all_others,simpson,114
ms,all_others,all_others,smith,114
ms,all_others,all_others,stone,112
ms,all_others,all_others,sunflower,114
ms,all_others,all_others,tallahatchie,114
ms,all_others,all_others,tate,114
ms,all_others,all_others,tippah,114
ms,all_others,all_others,tishomingo,114
ms,all_others,all_others,tunica,114
ms,all_others,all_others,union,114
ms,all_others,all_others,walthall,113
ms,all_others,all_others,warren,114
ms,all_others,all_others,washington,114
ms,all_others,all_others,wayne,114
ms,all_others,all_others,webster,114
ms,all_others,all_others,wilkinson,113
ms,all_others,all_others,winston,114
ms,all_others,all_others,yalobusha,114
ms,all_others,all_others,yazoo,114
mo,all_others,all_others,adair,113
mo,all_others,all_others,andrew,113
mo,all_others,all_others,atchison,113
mo,all_others,all_others,audrain,113
mo,all_others,all_others,barry,112
mo,all_others,all_others,barton,112
mo,all_others,all_others,bates,112
mo,all_others,all_others,benton,113
mo,all_others,all_others,bollinger,113
mo,all_others,all_others,boone,113
mo,all_others,all_others,buchanan,112
mo,all_others,all_others,butler,113
mo,all_others,all_others,caldwell,112
mo,all_others,all_others,callaway,113
mo,all_others,all_others,camden,113
mo,all_others,all_others,cape_girardeau,113
mo,all_others,all_others,carroll,112
mo,all_others,all_others,carter,113
mo,all_others,all_others,cass,112
mo,all_others,all_others,cedar,112
mo,all_others,all_others,chariton,113
mo,all_others,all_others,christian,112
mo,all_others,all_others,clark,113
mo,all_others,all_others,clay,112
mo,all_others,kansas_city,clay,122
mo,all_others,all_others,clinton,112
mo,all_others,all_others,cole,113
mo,all_others,all_others,cooper,113
mo,all_others,all_others,crawford,113
mo,all_others,all_others,dade,112
mo,all_others,all_others,dallas,113
mo,all_others,all_others,daviess,113
mo,all_others,all_others,dekalb,112
mo,all_others,all_others,dent,113
mo,all_others,all_others,douglas,113
mo,all_others,all_others,dunklin,111
mo,all_others,all_others,franklin,113
mo,all_others,all_others,gasconade,113
mo,all_others,all_others,gentry,113
mo,all_others,all_others,greene,112
mo,all_others,all_others,grundy,113
mo,all_others,all_others,harrison,113
mo,all_others,all_others,henry,112
mo,all_others,all_others,hickory,113
mo,all_others,all_others,holt,113
mo,all_others,all_others,howard,113
mo,all_others,all_others,howell,113
mo,all_others,all_others,iron,113
mo,all_others,all_others,jackson,112
mo,all_others,kansas_city,jackson,122
mo,all_others,all_others,jasper,112
mo,all_others,all_others,jefferson,113
mo,all_others,all_others,johnson,112
mo,all_others,all_others,knox,113
mo,all_others,all_others,laclede,113
mo,all_others,all_others,lafayette,112
mo,all_others,all_others,lawrence,112
mo,all_others,all_others,lewis,113
mo,all_others,all_others,lincoln,113
mo,all_others,all_others,linn,113
mo,all_others,all_others,livingston,113
mo,all_others,all_others,mcdonald,112
mo,all_others,all_others,macon,113
mo,all_others,all_others,madison,113
mo,all_others,all_others,maries,113
mo,all_others,all_others,marion,113
mo,all_others,all_others,mercer,113
mo,all_others,all_others,miller,113
mo,all_others,all_others,mississippi,111
mo,all_others,all_others,moniteau,113
mo,all_others,all_others,monroe,113
mo,all_others,all_others,montgomery,113
mo,all_others,all_others,morgan,113
mo,all_others,all_others,new_madrid,111
mo,all_others,all_others,newton,112
mo,all_others,all_others,nodaway,113
mo,all_others,all_others,oregon,113
mo,all_others,all_others,osage,113
mo,all_others,all_others,ozark,113
mo,all_others,all_others,pemiscot,111
mo,all_others,all_others,perry,113
mo,all_others,all_others,pettis,113
mo,all_others,all_others,phelps,113
mo,all_others,all_others,pike,113
mo,all_others,all_others,platte,112
mo,all_others,kansas_city,platte,122
mo,all_others,all_others,polk,112
mo,all_others,all_others,pulaski,113
mo,all_others,all_others,putnam,113
mo,all_others,all_others,ralls,113
mo,all_others,all_others,randolph,113
mo,all_others,all_others,ray,112
mo,all_others,all_others,reynolds,113
mo,all_others,all_others,ripley,113
mo,all_others,all_others,st_charles,113
mo,all_others,all_others,st_clair,113
mo,all_others,all_others,st_francois,113
mo,all_others,all_others,st_louis,113
mo,all_others,all_others,ste_genevieve,113
mo,all_others,all_others,saline,113
mo,all_others,all_others,schuyler,113
mo,all_others,all_others,scotland,113
mo,all_others,all_others,scott,113
mo,all_others,all_others,shannon,113
mo,all_others,all_others,shelby,113
mo,all_others,all_others,stoddard,111
mo,all_others,all_others,stone,113
mo,all_others,all_others,sullivan,113
mo,all_others,all_others,taney,113
mo,all_others,all_others,texas,113
mo,all_others,all_others,vernon,112
mo,all_others,all_others,warren,113
mo,all_others,all_others,washington,113
mo,all_others,all_others,wayne,113
mo,all_others,all_others,webster,113
mo,all_others,all_others,worth,113
mo,all_others,all_others,wright,113
mo,all_others,independent_city_of_st_louis,all_others,133
mt,all_others,all_others,beaverhead,111
mt,all_others,all_others,big_horn,112
mt,all_others,all_others,blaine,112
mt,all_others,all_others,broadwater,111
mt,all_others,all_others,carbon,112
mt,all_others,all_others,carter,112
mt,all_others,all_others,cascade,111
mt,all_others,great_falls,cascade,121
mt,all_others,all_others,chouteau,112
mt,all_others,all_others,custer,112
mt,all_others,all_others,daniels,112
mt,all_others,all_others,dawson,112
mt,all_others,all_others,deer_lodge,111
mt,all_others,all_others,fallon,112
mt,all_others,all_others,fergus,112
mt,all_others,all_others,flathead,111
mt,all_others,all_others,gallatin,111
mt,all_others,bozeman,gallatin,131
mt,all_others,all_others,garfield,112
mt,all_others,all_others,glacier,111
mt,all_others,all_others,golden_valley,112
mt,all_others,all_others,granite,111
mt,all_others,all_others,hill,112
mt,all_others,all_others,jefferson,111
mt,all_others,all_others,judith_basin,112
mt,all_others,all_others,lake,111
mt,all_others,all_others,lewis_and_clark,111
mt,all_others,helena,lewis_and_clark,131
mt,all_others,all_others,liberty,111
mt,all_others,all_others,lincoln,111
mt,all_others,all_others,mccone,112
mt,all_others,all_others,madison,111
mt,all_others,all_others,meagher,111
mt,all_others,all_others,mineral,111
mt,all_others,all_others,missoula,111
mt,all_others,missoula,missoula,131
mt,all_others,all_others,musselshell,112
mt,all_others,all_others,park,111
mt,all_others,all_others,petroleum,112
mt,all_others,all_others,phillips,112
mt,all_others,all_others,pondera,111
mt,all_others,all_others,powder_river,112
mt,all_others,all_others,powell,111
mt,all_others,all_others,prairie,112
mt,all_others,all_others,ravalli,111
mt,all_others,all_others,richland,112
mt,all_others,all_others,roosevelt,112
mt,all_others,all_others,rosebud,112
mt,all_others,all_others,sanders,111
mt,all_others,all_others,sheridan,112
mt,all_others,all_others,silver_bow,111
mt,all_others,butte,silver_bow,131
mt,all_others,all_others,stillwater,112
mt,all_others,all_others,sweet_grass,112
mt,all_others,all_others,teton,111
mt,all_others,all_others,toole,111
mt,all_others,all_others,treasure,112
mt,all_others,all_others,valley,112
mt,all_others,all_others,wheatland,112
mt,all_others,all_others,wibaux,112
mt,all_others,all_others,yellowstone,111
mt,all_others,billings,yellowstone,121
ne,all_others,all_others,adams,111
ne,all_others,all_others,antelope,112
ne,all_others,all_others,arthur,114
ne,all_others,all_others,banner,114
ne,all_others,all_others,blaine,113
ne,all_others,all_others,boone,112
ne,all_others,all_others,box_butte,114
ne,all_others,all_others,boyd,112
ne,all_others,all_others,brown,112
ne,all_others,all_others,buffalo,113
ne,all_others,all_others,burt,112
ne,all_others,all_others,butler,111
ne,all_others,all_others,cass,111
ne,all_others,all_others,cedar,112
ne,all_others,all_others,chase,113
ne,all_others,all_others,cherry,114
ne,all_others,all_others,cheyenne,114
ne,all_others,all_others,clay,111
ne,all_others,all_others,colfax,112
ne,all_others,all_others,cuming,112
ne,all_others,all_others,custer,113
ne,all_others,all_others,dakota,112
ne,all_others,all_others,dawes,114
ne,all_others,all_others,dawson,113
ne,all_others,all_others,deuel,114
ne,all_others,all_others,dixon,112
ne,all_others,all_others,dodge,111
ne,all_others,omaha,douglas,122
ne,all_others,all_others,douglas,112
ne,all_others,all_others,dundy,113
ne,all_others,all_others,fillmore,111
ne,all_others,all_others,franklin,111
ne,all_others,all_others,frontier,113
ne,all_others,all_others,furnas,113
ne,all_others,all_others,gage,111
ne,all_others,all_others,garden,114
ne,all_others,all_others,garfield,113
ne,all_others,all_others,gosper,113
ne,all_others,all_others,grant,114
ne,all_others,all_others,greeley,112
ne,all_others,grand_island,hall,131
ne,all_others,all_others,hall,111
ne,all_others,all_others,hamilton,111
ne,all_others,all_others,harlan,111
ne,all_others,all_others,hayes,113
ne,all_others,all_others,hitchcock,113
ne,all_others,all_others,holt,112
ne,all_others,all_others,hooker,114
ne,all_others,all_others,howard,112
ne,all_others,all_others,jefferson,111
ne,all_others,all_others,johnson,111
ne,all_others,all_others,kearney,113
ne,all_others,all_others,keith,114
ne,all_others,all_others,keya_paha,112
ne,all_others,all_others,kimball,114
ne,all_others,all_others,knox,112
ne,all_others,lincoln,lancaster,131
ne,all_others,all_others,lancaster,111
ne,all_others,all_others,lincoln,113
ne,all_others,all_others,logan,113
ne,all_others,all_others,loup,113
ne,all_others,all_others,madison,112
ne,all_others,all_others,mcpherson,114
ne,all_others,all_others,merrick,112
ne,all_others,all_others,morrill,114
ne,all_others,all_others,nance,112
ne,all_others,all_others,nemaha,111
ne,all_others,all_others,nuckolls,111
ne,all_others,all_others,otoe,111
ne,all_others,all_others,pawnee,111
ne,all_others,all_others,perkins,114
ne,all_others,all_others,phelps,113
ne,all_others,all_others,pierce,112
ne,all_others,all_others,platte,112
ne,all_others,all_others,polk,111
ne,all_others,all_others,red_willow,113
ne,all_others,all_others,richardson,111
ne,all_others,all_others,rock,112
ne,all_others,all_others,saline,111
ne,all_others,all_others,sarpy,111
ne,all_others,all_others,saunders,111
ne,all_others,all_others,scotts_bluff,114
ne,all_others,all_others,seward,111
ne,all_others,all_others,sheridan,114
ne,all_others,all_others,sherman,113
ne,all_others,all_others,sioux,114
ne,all_others,all_others,stanton,112
ne,all_others,all_others,thayer,111
ne,all_others,all_others,thomas,114
ne,all_others,all_others,thurston,112
ne,all_others,all_others,valley,113
ne,all_others,all_others,washington,112
ne,all_others,all_others,wayne,112
ne,all_others,all_others,webster,111
ne,all_others,all_others,wheeler,112
ne,all_others,all_others,york,111
nv,all_others,all_others,churchill,112
nv,all_others,all_others,clark,112
nv,all_others,east_las_vegas,clark,132
nv,all_others,las_vegas,clark,122
nv,all_others,north_las_vegas,clark,132
nv,all_others,paradise,clark,132
nv,all_others,sunrise_manor,clark,132
nv,all_others,winchester,clark,132
nv,all_others,all_others,douglas,111
nv,all_others,all_others,elko,112
nv,all_others,all_others,esmeralda,112
nv,all_others,all_others,eureka,112
nv,all_others,all_others,humboldt,112
nv,all_others,all_others,lander,112
nv,all_others,all_others,lincoln,112
nv,all_others,all_others,lyon,112
nv,all_others,all_others,mineral,112
nv,all_others,all_others,nye,112
nv,all_others,all_others,pershing,112
nv,all_others,all_others,storey,112
nv,all_others,all_others,washoe,111
nv,all_others,reno,washoe,131
nv,all_others,sparks,washoe,131
nv,all_others,all_others,whitepine,112
nv,all_others,all_others,independent_city_of_carson_city,112
nh,all_others,all_others,belknap,113
nh,all_others,all_others,carroll,113
nh,all_others,all_others,cheshire,112
nh,all_others,keene,cheshire,132
nh,all_others,all_others,coos,113
nh,all_others,all_others,grafton,113
nh,all_others,all_others,hillsborough,112
nh,all_others,manchester,hillsborough,122
nh,all_others,nashua,hillsborough,122
nh,all_others,all_others,merrimack,113
nh,all_others,concord,merrimack,133
nh,all_others,all_others,rockingham,112
nh,all_others,hampton_beach_area,rockingham,114
nh,all_others,seabrook_beach_area,rockingham,114
nh,all_others,beach_territory,rockingham,114
nh,z_03801,all_others,rockingham,111
nh,z_03840,all_others,rockingham,111
nh,z_03844,all_others,rockingham,111
nh,z_03854,all_others,rockingham,111
nh,z_03862,all_others,rockingham,111
nh,z_03870,all_others,rockingham,111
nh,z_03784,all_others,rockingham,111
nh,all_others,all_others,stafford,112
nh,all_others,dover,stafford,132
nh,all_others,rochester,stafford,132
nh,all_others,all_others,sullivan,113
nj,all_others,all_others,atlantic,112
nj,all_others,atlantic_city,atlantic,141
nj,z_08225,all_others,atlantic,111
nj,z_08231,all_others,atlantic,111
nj,z_08232,all_others,atlantic,111
nj,z_08241,all_others,atlantic,111
nj,z_08244,all_others,atlantic,111
nj,z_08402,all_others,atlantic,111
nj,z_08201,all_others,atlantic,111
nj,z_08203,all_others,atlantic,111
nj,z_08205,all_others,atlantic,111
nj,z_08220,all_others,atlantic,111
nj,z_08221,all_others,atlantic,111
nj,z_08403,all_others,atlantic,111
nj,z_08406,all_others,atlantic,111
nj,all_others,all_others,bergen,112
nj,all_others,bergenfield,bergen,142
nj,all_others,cliffside_park,bergen,142
nj,all_others,englewood,bergen,142
nj,all_others,fair_lawn,bergen,142
nj,all_others,fort_lee,bergen,142
nj,all_others,hackensack,bergen,142
nj,all_others,ridgewood,bergen,142
nj,all_others,teaneck,bergen,142
nj,all_others,wyckoff,bergen,142
nj,all_others,all_others,burlington,112
nj,all_others,all_others,camden,112
nj,all_others,camden,camden,142
nj,all_others,all_others,cape_may,112
nj,z_08202,all_others,cape_may,111
nj,z_08204,all_others,cape_may,111
nj,z_08210,all_others,cape_may,111
nj,z_08212,all_others,cape_may,111
nj,z_08218,all_others,cape_may,111
nj,z_08219,all_others,cape_may,111
nj,z_08223,all_others,cape_may,111
nj,z_08226,all_others,cape_may,111
nj,z_08230,all_others,cape_may,111
nj,z_08242,all_others,cape_may,111
nj,z_08243,all_others,cape_may,111
nj,z_08245,all_others,cape_may,111
nj,z_08246,all_others,cape_may,111
nj,z_08247,all_others,cape_may,111
nj,z_08251,all_others,cape_may,111
nj,z_08252,all_others,cape_may,111
nj,z_08260,all_others,cape_may,111
nj,all_others,all_others,cumberland,112
nj,all_others,all_others,essex,112
nj,all_others,newark_international_airport,essex,142
nj,all_others,belleville,essex,142
nj,all_others,bloomfield,essex,142
nj,all_others,east_orange,essex,142
nj,all_others,irvington,essex,142
nj,all_others,livingston,essex,142
nj,all_others,maplewood,essex,142
nj,all_others,millburn,essex,142
nj,all_others,montclair,essex,142
nj,all_others,newark,essex,132
nj,all_others,nutley,essex,142
nj,all_others,orange,essex,142
nj,all_others,south_orange,essex,142
nj,all_others,west_orange,essex,142
nj,all_others,all_others,gloucester,112
nj,all_others,all_others,hudson,112
nj,all_others,bayonne,hudson,142
nj,all_others,hoboken,hudson,142
nj,all_others,jersey_city,hudson,122
nj,all_others,kearny,hudson,142
nj,all_others,north_bergen,hudson,142
nj,all_others,union_city,hudson,142
nj,all_others,west_new_york,hudson,142
nj,all_others,all_others,hunterdon,113
nj,all_others,all_others,mercer,112
nj,all_others,trenton,mercer,142
nj,all_others,all_others,middlesex,112
nj,all_others,edison,middlesex,142
nj,all_others,new_brunswick,middlesex,142
nj,all_others,south_plainfield,middlesex,142
nj,all_others,all_others,monmouth,112
nj,all_others,long_branch,monmouth,141
nj,z_07701,all_others,monmouth,111
nj,z_07702,all_others,monmouth,111
nj,z_07703,all_others,monmouth,111
nj,z_07704,all_others,monmouth,111
nj,z_07709,all_others,monmouth,111
nj,z_07711,all_others,monmouth,111
nj,z_07712,all_others,monmouth,111
nj,z_07715,all_others,monmouth,111
nj,z_07716,all_others,monmouth,111
nj,z_07717,all_others,monmouth,111
nj,z_07718,all_others,monmouth,111
nj,z_07719,all_others,monmouth,111
nj,z_07720,all_others,monmouth,111
nj,z_07723,all_others,monmouth,111
nj,z_07724,all_others,monmouth,111
nj,z_07732,all_others,monmouth,111
nj,z_07734,all_others,monmouth,111
nj,z_07735,all_others,monmouth,111
nj,z_07737,all_others,monmouth,111
nj,z_07739,all_others,monmouth,111
nj,z_07748,all_others,monmouth,111
nj,z_07750,all_others,monmouth,111
nj,z_07752,all_others,monmouth,111
nj,z_07753,all_others,monmouth,111
nj,z_07754,all_others,monmouth,111
nj,z_07755,all_others,monmouth,111
nj,z_07756,all_others,monmouth,111
nj,z_07757,all_others,monmouth,111
nj,z_07758,all_others,monmouth,111
nj,z_07760,all_others,monmouth,111
nj,z_07762,all_others,monmouth,111
nj,z_07764,all_others,monmouth,111
nj,z_07799,all_others,monmouth,111
nj,z_08720,all_others,monmouth,111
nj,z_08730,all_others,monmouth,111
nj,z_08736,all_others,monmouth,111
nj,z_08750,all_others,monmouth,111
nj,all_others,all_others,morris,113
nj,all_others,all_others,ocean,112
nj,z_08005,all_others,ocean,111
nj,z_08006,all_others,ocean,111
nj,z_08008,all_others,ocean,111
nj,z_08050,all_others,ocean,111
nj,z_08087,all_others,ocean,111
nj,z_08092,all_others,ocean,111
nj,z_08721,all_others,ocean,111
nj,z_08723,all_others,ocean,111
nj,z_08724,all_others,ocean,111
nj,z_08731,all_others,ocean,111
nj,z_08732,all_others,ocean,111
nj,z_08734,all_others,ocean,111
nj,z_08735,all_others,ocean,111
nj,z_08738,all_others,ocean,111
nj,z_08739,all_others,ocean,111
nj,z_08740,all_others,ocean,111
nj,z_08741,all_others,ocean,111
nj,z_08742,all_others,ocean,111
nj,z_08751,all_others,ocean,111
nj,z_08752,all_others,ocean,111
nj,z_08753,all_others,ocean,111
nj,z_08754,all_others,ocean,111
nj,z_08756,all_others,ocean,111
nj,z_08758,all_others,ocean,111
nj,all_others,all_others,passaic,112
nj,all_others,clifton,passaic,142
nj,all_others,passaic,passaic,142
nj,all_others,paterson,passaic,142
nj,all_others,wayne,passaic,142
nj,all_others,all_others,salem,112
nj,all_others,all_others,somerset,112
nj,all_others,north_plainfield,somerset,142
nj,all_others,all_others,sussex,113
nj,all_others,all_others,union,112
nj,all_others,newark_international_airport,union,142
nj,all_others,cranford,union,142
nj,all_others,elizabeth,union,142
nj,all_others,hillside,union,142
nj,all_others,linden,union,142
nj,all_others,plainfield,union,142
nj,all_others,rahway,union,142
nj,all_others,scotch_plains,union,142
nj,all_others,summit,union,142
nj,all_others,union,union,142
nj,all_others,westfield,union,142
nj,all_others,all_others,warren,113
nm,all_others,all_others,bernalillo,113
nm,all_others,albuquerque,bernalillo,123
nm,all_others,all_others,catron,113
nm,all_others,all_others,chaves,112
nm,all_others,roswell,chaves,122
nm,all_others,all_others,cibola,113
nm,all_others,all_others,colfax,112
nm,all_others,all_others,curry,111
nm,all_others,clovis,curry,121
nm,all_others,all_others,de_baca,112
nm,all_others,all_others,dona_ana,113
nm,all_others,las_cruces,dona_ana,123
nm,all_others,all_others,eddy,112
nm,all_others,all_others,grant,113
nm,all_others,all_others,guadalupe,112
nm,all_others,all_others,harding,112
nm,all_others,all_others,hidalgo,113
nm,all_others,all_others,lea,111
nm,all_others,hobbs,lea,121
nm,all_others,all_others,lincoln,113
nm,all_others,all_others,los_alamos,113
nm,all_others,alamos,los_alamos,123
nm,all_others,all_others,luna,113
nm,all_others,all_others,mckinley,113
nm,all_others,all_others,mora,112
nm,all_others,all_others,otero,113
nm,all_others,all_others,quay,112
nm,all_others,all_others,rio_arriba,113
nm,all_others,all_others,roosevelt,111
nm,all_others,all_others,sandoval,113
nm,all_others,all_others,san_juan,113
nm,all_others,all_others,san_miguel,112
nm,all_others,all_others,santa_fe,113
nm,all_others,santa_fe,santa_fe,123
nm,all_others,all_others,sierra,113
nm,all_others,all_others,socorro,113
nm,all_others,all_others,taos,113
nm,all_others,all_others,torrance,113
nm,all_others,all_others,union,112
nm,all_others,all_others,valencia,113
ny,all_others,all_others,albany,116
ny,all_others,albany,albany,156
ny,all_others,cohoes,albany,156
ny,all_others,all_others,allegany,116
ny,all_others,all_others,bronx,144
ny,all_others,all_others,broome,116
ny,all_others,binghamton,broome,156
ny,all_others,endwell,broome,156
ny,all_others,johnson_city,broome,156
ny,all_others,all_others,cattaraugus,116
ny,all_others,olean_city,cattaraugus,156
ny,all_others,all_others,cayuga,156
ny,all_others,auburn,cayuga,116
ny,all_others,all_others,chautauqua,116
ny,all_others,dunkirk,chautauqua,156
ny,all_others,jamestown,chautauqua,156
ny,all_others,all_others,chemung,116
ny,all_others,elmira,chemung,156
ny,all_others,all_others,chenango,116
ny,all_others,all_others,clinton,116
ny,all_others,plattsburgh,clinton,156
ny,all_others,all_others,columbia,116
ny,all_others,all_others,cortland,116
ny,all_others,cortland,cortland,156
ny,all_others,all_others,delaware,116
ny,all_others,all_others,dutchess,116
ny,all_others,poughkeepsie,dutchess,156
ny,all_others,all_others,erie,116
ny,all_others,amherst,erie,156
ny,all_others,buffalo,erie,126
ny,all_others,cheektowaga,erie,156
ny,all_others,depew,erie,156
ny,all_others,kenmore,erie,156
ny,all_others,lackawanna,erie,156
ny,all_others,tonawanda,erie,156
ny,all_others,seneca,erie,156
ny,all_others,all_others,essex,116
ny,all_others,all_others,franklin,116
ny,all_others,all_others,fulton,116
ny,all_others,gloversville,fulton,156
ny,all_others,all_others,genesee,116
ny,all_others,batavia,genesee,156
ny,all_others,all_others,greene,116
ny,all_others,all_others,hamilton,116
ny,all_others,all_others,herkimer,116
ny,all_others,all_others,jefferson,116
ny,all_others,watertown,jefferson,156
ny,z_11204,all_others,kings,141
ny,z_11209,all_others,kings,141
ny,z_11210,all_others,kings,141
ny,z_11214,all_others,kings,141
ny,z_11218,all_others,kings,141
ny,z_11219,all_others,kings,141
ny,z_11220,all_others,kings,141
ny,z_11223,all_others,kings,141
ny,z_11224,all_others,kings,141
ny,z_11228,all_others,kings,141
ny,z_11229,all_others,kings,141
ny,z_11230,all_others,kings,141
ny,z_11232,all_others,kings,141
ny,z_11234,all_others,kings,141
ny,z_11235,all_others,kings,141
ny,z_11236,all_others,kings,141
ny,z_11252,all_others,kings,141
ny,z_11201,all_others,kings,142
ny,z_11202,all_others,kings,142
ny,z_11203,all_others,kings,142
ny,z_11205,all_others,kings,142
ny,z_11206,all_others,kings,142
ny,z_11207,all_others,kings,142
ny,z_11208,all_others,kings,142
ny,z_11212,all_others,kings,142
ny,z_11213,all_others,kings,142
ny,z_11215,all_others,kings,142
ny,z_11216,all_others,kings,142
ny,z_11217,all_others,kings,142
ny,z_11221,all_others,kings,142
ny,z_11225,all_others,kings,142
ny,z_11226,all_others,kings,142
ny,z_11231,all_others,kings,142
ny,z_11233,all_others,kings,142
ny,z_11238,all_others,kings,142
ny,z_11239,all_others,kings,142
ny,z_11241,all_others,kings,142
ny,z_11243,all_others,kings,142
ny,z_11245,all_others,kings,142
ny,z_11247,all_others,kings,142
ny,z_11249,all_others,kings,142
ny,z_11251,all_others,kings,142
ny,z_11256,all_others,kings,142
ny,z_11211,all_others,kings,143
ny,z_11222,all_others,kings,143
ny,z_11237,all_others,kings,143
ny,all_others,all_others,lewis,116
ny,all_others,all_others,livingston,116
ny,all_others,all_others,madison,116
ny,all_others,all_others,monroe,116
ny,all_others,gates,monroe,156
ny,all_others,irondequoit,monroe,156
ny,all_others,rochester,monroe,136
ny,all_others,all_others,montgomery,116
ny,all_others,amsterdam,montgomery,156
ny,z_11096,all_others,nassau,111
ny,z_11509,all_others,nassau,111
ny,z_11516,all_others,nassau,111
ny,z_11518,all_others,nassau,111
ny,z_11557,all_others,nassau,111
ny,z_11558,all_others,nassau,111
ny,z_11559,all_others,nassau,111
ny,z_11561,all_others,nassau,111
ny,z_11569,all_others,nassau,111
ny,z_11702,all_others,nassau,111
ny,z_11710,all_others,nassau,111
ny,z_11762,all_others,nassau,111
ny,z_11783,all_others,nassau,111
ny,z_11552,all_others,nassau,112
ny,z_11565,all_others,nassau,112
ny,z_11575,all_others,nassau,112
ny,z_11580,all_others,nassau,112
ny,z_11581,all_others,nassau,112
ny,z_11582,all_others,nassau,112
ny,z_11590,all_others,nassau,112
ny,z_11594,all_others,nassau,112
ny,z_11597,all_others,nassau,112
ny,z_11736,all_others,nassau,112
ny,z_11774,all_others,nassau,112
ny,z_11804,all_others,nassau,112
ny,z_11020,all_others,nassau,113
ny,z_11040,all_others,nassau,113
ny,z_11042,all_others,nassau,113
ny,z_11507,all_others,nassau,113
ny,z_11514,all_others,nassau,113
ny,z_11568,all_others,nassau,113
ny,z_11577,all_others,nassau,113
ny,z_11596,all_others,nassau,113
ny,z_11753,all_others,nassau,113
ny,z_11797,all_others,nassau,113
ny,z_11021,all_others,nassau,114
ny,z_11022,all_others,nassau,114
ny,z_11023,all_others,nassau,114
ny,z_11024,all_others,nassau,114
ny,z_11030,all_others,nassau,114
ny,z_11545,all_others,nassau,114
ny,z_11547,all_others,nassau,114
ny,z_11548,all_others,nassau,114
ny,z_11560,all_others,nassau,114
ny,z_11576,all_others,nassau,114
ny,z_11709,all_others,nassau,114
ny,z_11732,all_others,nassau,114
ny,z_11765,all_others,nassau,114
ny,z_11771,all_others,nassau,114
ny,z_11773,all_others,nassau,114
ny,z_11791,all_others,nassau,114
ny,z_11510,all_others,nassau,151
ny,z_11520,all_others,nassau,151
ny,z_11563,all_others,nassau,151
ny,z_11566,all_others,nassau,151
ny,z_11570,all_others,nassau,151
ny,z_11571,all_others,nassau,151
ny,z_11572,all_others,nassau,151
ny,z_11598,all_others,nassau,151
ny,z_11758,all_others,nassau,151
ny,z_11793,all_others,nassau,151
ny,z_11003,all_others,nassau,152
ny,z_11010,all_others,nassau,152
ny,z_11530,all_others,nassau,152
ny,z_11531,all_others,nassau,152
ny,z_11535,all_others,nassau,152
ny,z_11549,all_others,nassau,152
ny,z_11550,all_others,nassau,152
ny,z_11551,all_others,nassau,152
ny,z_11553,all_others,nassau,152
ny,z_11554,all_others,nassau,152
ny,z_11555,all_others,nassau,152
ny,z_11556,all_others,nassau,152
ny,z_11599,all_others,nassau,152
ny,z_11714,all_others,nassau,152
ny,z_11756,all_others,nassau,152
ny,z_11001,all_others,nassau,153
ny,z_11002,all_others,nassau,153
ny,z_11501,all_others,nassau,153
ny,z_11801,all_others,nassau,153
ny,z_11802,all_others,nassau,153
ny,z_11803,all_others,nassau,153
ny,z_11815,all_others,nassau,153
ny,z_11854,all_others,nassau,153
ny,z_11855,all_others,nassau,153
ny,z_11050,all_others,nassau,154
ny,z_11051,all_others,nassau,154
ny,z_11052,all_others,nassau,154
ny,z_11053,all_others,nassau,154
ny,z_11054,all_others,nassau,154
ny,z_11055,all_others,nassau,154
ny,z_11542,all_others,nassau,154
ny,all_others,all_others,new_york,144
ny,all_others,all_others,niagara,116
ny,all_others,lockport,niagara,156
ny,all_others,niagara_Falls,niagara,156
ny,all_others,north_tonawanda,niagara,156
ny,all_others,all_others,oneida,116
ny,all_others,rome,oneida,156
ny,all_others,utica,oneida,156
ny,all_others,all_others,onondaga,116
ny,all_others,syracuse,onondaga,156
ny,all_others,all_others,ontario,116
ny,all_others,geneva,ontario,156
ny,all_others,all_others,orange,116
ny,all_others,middletown,orange,156
ny,all_others,newburgh,orange,156
ny,all_others,all_others,orleans,116
ny,all_others,all_others,oswego,116
ny,all_others,oswego,oswego,156
ny,all_others,all_others,otsego,116
ny,all_others,all_others,putnam,115
ny,z_11690,all_others,queens,141
ny,z_11691,all_others,queens,141
ny,z_11692,all_others,queens,141
ny,z_11693,all_others,queens,141
ny,z_11694,all_others,queens,141
ny,z_11695,all_others,queens,141
ny,z_11697,all_others,queens,141
ny,z_11385,all_others,queens,142
ny,z_11386,all_others,queens,142
ny,z_11405,all_others,queens,142
ny,z_11411,all_others,queens,142
ny,z_11412,all_others,queens,142
ny,z_11413,all_others,queens,142
ny,z_11414,all_others,queens,142
ny,z_11416,all_others,queens,142
ny,z_11417,all_others,queens,142
ny,z_11418,all_others,queens,142
ny,z_11419,all_others,queens,142
ny,z_11420,all_others,queens,142
ny,z_11421,all_others,queens,142
ny,z_11422,all_others,queens,142
ny,z_11425,all_others,queens,142
ny,z_11429,all_others,queens,142
ny,z_11430,all_others,queens,142
ny,z_11433,all_others,queens,142
ny,z_11434,all_others,queens,142
ny,z_11435,all_others,queens,142
ny,z_11436,all_others,queens,142
ny,z_11451,all_others,queens,142
ny,z_11499,all_others,queens,142
ny,z_11004,all_others,queens,143
ny,z_11005,all_others,queens,143
ny,z_11101,all_others,queens,143
ny,z_11104,all_others,queens,143
ny,z_11106,all_others,queens,143
ny,z_11109,all_others,queens,143
ny,z_11352,all_others,queens,143
ny,z_11355,all_others,queens,143
ny,z_11358,all_others,queens,143
ny,z_11361,all_others,queens,143
ny,z_11362,all_others,queens,143
ny,z_11364,all_others,queens,143
ny,z_11365,all_others,queens,143
ny,z_11366,all_others,queens,143
ny,z_11367,all_others,queens,143
ny,z_11368,all_others,queens,143
ny,z_11369,all_others,queens,143
ny,z_11372,all_others,queens,143
ny,z_11373,all_others,queens,143
ny,z_11374,all_others,queens,143
ny,z_11375,all_others,queens,143
ny,z_11377,all_others,queens,143
ny,z_11378,all_others,queens,143
ny,z_11379,all_others,queens,143
ny,z_11380,all_others,queens,143
ny,z_11381,all_others,queens,143
ny,z_11415,all_others,queens,143
ny,z_11423,all_others,queens,143
ny,z_11424,all_others,queens,143
ny,z_11426,all_others,queens,143
ny,z_11427,all_others,queens,143
ny,z_11428,all_others,queens,143
ny,z_11431,all_others,queens,143
ny,z_11102,all_others,queens,144
ny,z_11103,all_others,queens,144
ny,z_11105,all_others,queens,144
ny,z_11351,all_others,queens,144
ny,z_11354,all_others,queens,144
ny,z_11356,all_others,queens,144
ny,z_11357,all_others,queens,144
ny,z_11359,all_others,queens,144
ny,z_11360,all_others,queens,144
ny,z_11363,all_others,queens,144
ny,z_11370,all_others,queens,144
ny,z_11371,all_others,queens,144
ny,all_others,all_others,rensselaer,116
ny,all_others,troy,rensselaer,156
ny,z_10304,all_others,richmond,141
ny,z_10305,all_others,richmond,141
ny,z_10306,all_others,richmond,141
ny,z_10307,all_others,richmond,141
ny,z_10308,all_others,richmond,141
ny,z_10309,all_others,richmond,141
ny,z_10312,all_others,richmond,141
ny,z_10301,all_others,richmond,142
ny,z_10302,all_others,richmond,142
ny,z_10303,all_others,richmond,142
ny,z_10310,all_others,richmond,142
ny,z_10311,all_others,richmond,142
ny,z_10313,all_others,richmond,142
ny,z_10314,all_others,richmond,142
ny,all_others,all_others,rockland,115
ny,all_others,new_city,rockland,155
ny,all_others,pearl_river,rockland,155
ny,all_others,all_others,st_lawrence,116
ny,all_others,all_others,saratoga,116
ny,all_others,saratoga_springs,saratoga,156
ny,all_others,all_others,schenectady,116
ny,all_others,schenectday,schenectady,156
ny,all_others,all_others,schoharie,116
ny,all_others,all_others,schuyler,116
ny,all_others,all_others,seneca,116
ny,all_others,geneva,seneca,156
ny,all_others,all_others,steuben,116
ny,z_11701,all_others,suffolk,111
ny,z_11703,all_others,suffolk,111
ny,z_11705,all_others,suffolk,111
ny,z_11708,all_others,suffolk,111
ny,z_11713,all_others,suffolk,111
ny,z_11715,all_others,suffolk,111
ny,z_11716,all_others,suffolk,111
ny,z_11718,all_others,suffolk,111
ny,z_11719,all_others,suffolk,111
ny,z_11730,all_others,suffolk,111
ny,z_11739,all_others,suffolk,111
ny,z_11751,all_others,suffolk,111
ny,z_11752,all_others,suffolk,111
ny,z_11769,all_others,suffolk,111
ny,z_11770,all_others,suffolk,111
ny,z_11772,all_others,suffolk,111
ny,z_11795,all_others,suffolk,111
ny,z_11796,all_others,suffolk,111
ny,z_11930,all_others,suffolk,111
ny,z_11932,all_others,suffolk,111
ny,z_11934,all_others,suffolk,111
ny,z_11937,all_others,suffolk,111
ny,z_11940,all_others,suffolk,111
ny,z_11941,all_others,suffolk,111
ny,z_11942,all_others,suffolk,111
ny,z_11946,all_others,suffolk,111
ny,z_11950,all_others,suffolk,111
ny,z_11951,all_others,suffolk,111
ny,z_11954,all_others,suffolk,111
ny,z_11955,all_others,suffolk,111
ny,z_11959,all_others,suffolk,111
ny,z_11960,all_others,suffolk,111
ny,z_11962,all_others,suffolk,111
ny,z_11963,all_others,suffolk,111
ny,z_11967,all_others,suffolk,111
ny,z_11968,all_others,suffolk,111
ny,z_11969,all_others,suffolk,111
ny,z_11972,all_others,suffolk,111
ny,z_11975,all_others,suffolk,111
ny,z_11976,all_others,suffolk,111
ny,z_11977,all_others,suffolk,111
ny,z_11978,all_others,suffolk,111
ny,z_00501,all_others,suffolk,112
ny,z_00544,all_others,suffolk,112
ny,z_11717,all_others,suffolk,112
ny,z_11735,all_others,suffolk,112
ny,z_11737,all_others,suffolk,112
ny,z_11738,all_others,suffolk,112
ny,z_11741,all_others,suffolk,112
ny,z_11742,all_others,suffolk,112
ny,z_11749,all_others,suffolk,112
ny,z_11760,all_others,suffolk,112
ny,z_11763,all_others,suffolk,112
ny,z_11788,all_others,suffolk,112
ny,z_11798,all_others,suffolk,112
ny,z_11949,all_others,suffolk,112
ny,z_11980,all_others,suffolk,112
ny,z_06390,all_others,suffolk,113
ny,z_11725,all_others,suffolk,113
ny,z_11727,all_others,suffolk,113
ny,z_11747,all_others,suffolk,113
ny,z_11755,all_others,suffolk,113
ny,z_11767,all_others,suffolk,113
ny,z_11775,all_others,suffolk,113
ny,z_11776,all_others,suffolk,113
ny,z_11784,all_others,suffolk,113
ny,z_11901,all_others,suffolk,113
ny,z_11931,all_others,suffolk,113
ny,z_11933,all_others,suffolk,113
ny,z_11935,all_others,suffolk,113
ny,z_11939,all_others,suffolk,113
ny,z_11944,all_others,suffolk,113
ny,z_11947,all_others,suffolk,113
ny,z_11948,all_others,suffolk,113
ny,z_11952,all_others,suffolk,113
ny,z_11953,all_others,suffolk,113
ny,z_11956,all_others,suffolk,113
ny,z_11957,all_others,suffolk,113
ny,z_11958,all_others,suffolk,113
ny,z_11961,all_others,suffolk,113
ny,z_11964,all_others,suffolk,113
ny,z_11965,all_others,suffolk,113
ny,z_11970,all_others,suffolk,113
ny,z_11971,all_others,suffolk,113
ny,z_11973,all_others,suffolk,113
ny,z_11721,all_others,suffolk,114
ny,z_11724,all_others,suffolk,114
ny,z_11733,all_others,suffolk,114
ny,z_11740,all_others,suffolk,114
ny,z_11743,all_others,suffolk,114
ny,z_11754,all_others,suffolk,114
ny,z_11764,all_others,suffolk,114
ny,z_11766,all_others,suffolk,114
ny,z_11768,all_others,suffolk,114
ny,z_11777,all_others,suffolk,114
ny,z_11778,all_others,suffolk,114
ny,z_11780,all_others,suffolk,114
ny,z_11786,all_others,suffolk,114
ny,z_11789,all_others,suffolk,114
ny,z_11790,all_others,suffolk,114
ny,z_11792,all_others,suffolk,114
ny,z_11794,all_others,suffolk,114
ny,z_11704,all_others,suffolk,151
ny,z_11706,all_others,suffolk,151
ny,z_11707,all_others,suffolk,151
ny,z_11726,all_others,suffolk,151
ny,z_11757,all_others,suffolk,151
ny,z_11782,all_others,suffolk,151
ny,z_11722,all_others,suffolk,152
ny,z_11729,all_others,suffolk,152
ny,z_11779,all_others,suffolk,152
ny,z_11720,all_others,suffolk,153
ny,z_11746,all_others,suffolk,153
ny,z_11750,all_others,suffolk,153
ny,z_11787,all_others,suffolk,153
ny,z_11731,all_others,suffolk,154
ny,all_others,all_others,sullivan,116
ny,all_others,all_others,tioga,116
ny,all_others,all_others,tompkins,116
ny,all_others,ithaca,tompkins,156
ny,all_others,all_others,ulster,116
ny,all_others,kingston,ulster,156
ny,all_others,all_others,warren,116
ny,all_others,glens_falls,warren,156
ny,all_others,all_others,washington,116
ny,all_others,all_others,wayne,116
ny,all_others,all_others,westchester,116
ny,all_others,eastchester,westchester,155
ny,all_others,mamaroneck,westchester,155
ny,all_others,mount_vernon,westchester,155
ny,all_others,new_rochelle,westchester,155
ny,all_others,peekskill,westchester,155
ny,all_others,port_chester,westchester,155
ny,all_others,rye,westchester,155
ny,all_others,scarsdale,westchester,155
ny,all_others,white_plains,westchester,155
ny,all_others,yonkers,westchester,155
ny,all_others,all_others,wyoming,116
ny,all_others,all_others,yates,116
nc,all_others,all_others,alamance,113
nc,all_others,all_others,alexander,115
nc,all_others,all_others,alleghany,115
nc,all_others,all_others,anson,114
nc,all_others,all_others,ashe,115
nc,all_others,all_others,avery,115
nc,all_others,all_others,beaufort,111
nc,all_others,all_others,bertie,112
nc,all_others,all_others,bladen,112
nc,all_others,all_others,brunswick,112
nc,all_others,beach_area_star,brunswick,111
nc,all_others,all_others,buncombe,115
nc,all_others,asheville,buncombe,135
nc,all_others,all_others,burke,115
nc,all_others,all_others,cabarrus,114
nc,all_others,all_others,caldwell,115
nc,all_others,all_others,camden,111
nc,all_others,all_others,carteret,111
nc,all_others,beach_area_star,carteret,116
nc,all_others,all_others,caswell,113
nc,all_others,all_others,catawba,114
nc,all_others,hickory,catawba,134
nc,all_others,all_others,chatham,113
nc,all_others,all_others,cherokee,115
nc,all_others,all_others,chowan,111
nc,all_others,all_others,clay,115
nc,all_others,all_others,cleveland,114
nc,all_others,all_others,columbus,112
nc,all_others,all_others,craven,111
nc,all_others,all_others,cumberland,113
nc,all_others,fayetteville,cumberland,133
nc,all_others,all_others,currituck,111
nc,all_others,beach_area_star,currituck,116
nc,all_others,all_others,dare,111
nc,all_others,beach_area_star,dare,116
nc,all_others,all_others,davidson,114
nc,all_others,all_others,davie,114
nc,all_others,all_others,duplin,112
nc,all_others,all_others,durham,113
nc,all_others,durham,durham,133
nc,all_others,all_others,edgecombe,112
nc,all_others,rocky_mount,edgecombe,132
nc,all_others,all_others,forsyth,114
nc,all_others,winston_salem,forsyth,134
nc,all_others,all_others,franklin,113
nc,all_others,all_others,gaston,114
nc,all_others,all_others,gates,112
nc,all_others,all_others,graham,115
nc,all_others,all_others,granville,113
nc,all_others,all_others,greene,112
nc,all_others,all_others,guilford,114
nc,all_others,greensboro,guilford,134
nc,all_others,high_point,guilford,124
nc,all_others,all_others,halifax,113
nc,all_others,all_others,harnett,113
nc,all_others,all_others,haywood,115
nc,all_others,all_others,henderson,115
nc,all_others,all_others,hertford,112
nc,all_others,all_others,hoke,113
nc,all_others,all_others,hyde,111
nc,all_others,beach_area_star,hyde,116
nc,all_others,all_others,iredell,114
nc,all_others,all_others,jackson,115
nc,all_others,all_others,johnston,112
nc,all_others,all_others,jones,111
nc,all_others,all_others,lee,113
nc,all_others,all_others,lenoir,112
nc,all_others,kinston,lenoir,132
nc,all_others,all_others,lincoln,114
nc,all_others,all_others,mcdowell,115
nc,all_others,all_others,macon,115
nc,all_others,all_others,madison,115
nc,all_others,all_others,martin,112
nc,all_others,all_others,mecklenburg,114
nc,all_others,charlotte,mecklenburg,124
nc,all_others,all_others,mitchell,115
nc,all_others,all_others,montgomery,114
nc,all_others,all_others,moore,113
nc,all_others,all_others,nash,113
nc,all_others,all_others,new_hanover,111
nc,all_others,beach_area_star,new_hanover,116
nc,all_others,wilmington,new_hanover,121
nc,all_others,all_others,northampton,113
nc,all_others,all_others,onslow,111
nc,all_others,beach_area_star,onslow,116
nc,all_others,all_others,orange,113
nc,all_others,chapel_hill,orange,133
nc,all_others,all_others,pamlico,111
nc,all_others,all_others,pasquotank,111
nc,all_others,all_others,pender,111
nc,all_others,beach_area_star,pender,116
nc,all_others,all_others,perquimans,111
nc,all_others,all_others,person,113
nc,all_others,all_others,pitt,112
nc,all_others,all_others,polk,115
nc,all_others,all_others,randolph,114
nc,all_others,all_others,richmond,114
nc,all_others,all_others,robeson,112
nc,all_others,all_others,rockingham,114
nc,all_others,all_others,rowan,114
nc,all_others,salisbury,rowan,134
nc,all_others,all_others,rutherford,114
nc,all_others,all_others,sampson,112
nc,all_others,all_others,scotland,113
nc,all_others,all_others,stanly,114
nc,all_others,all_others,stokes,114
nc,all_others,all_others,surry,115
nc,all_others,all_others,swain,115
nc,all_others,all_others,transylvania,115
nc,all_others,all_others,tyrrell,111
nc,all_others,all_others,union,114
nc,all_others,all_others,vance,113
nc,all_others,all_others,wake,113
nc,all_others,raleigh,wake,133
nc,all_others,all_others,warren,113
nc,all_others,all_others,washington,111
nc,all_others,all_others,watauga,115
nc,all_others,all_others,wayne,112
nc,all_others,goldsboro,wayne,132
nc,all_others,all_others,wilkes,115
nc,all_others,all_others,wilson,112
nc,all_others,wilson,wilson,132
nc,all_others,all_others,yadkin,114
nc,all_others,all_others,yancey,115
nd,all_others,all_others,adams,113
nd,all_others,all_others,barnes,111
nd,all_others,all_others,benson,112
nd,all_others,all_others,billings,113
nd,all_others,all_others,bottineau,113
nd,all_others,all_others,bowman,113
nd,all_others,all_others,burke,113
nd,all_others,all_others,burleigh,112
nd,all_others,bismarck,burleigh,132
nd,all_others,all_others,cass,111
nd,all_others,fargo,cass,121
nd,all_others,all_others,cavalier,112
nd,all_others,all_others,dickey,111
nd,all_others,all_others,divide,113
nd,all_others,all_others,dunn,113
nd,all_others,all_others,eddy,112
nd,all_others,all_others,emmons,112
nd,all_others,all_others,foster,112
nd,all_others,all_others,golden_valley,123
nd,all_others,all_others,grand_forks,111
nd,all_others,grand_forks,grand_forks,121
nd,all_others,all_others,grant,113
nd,all_others,all_others,griggs,111
nd,all_others,all_others,hettinger,113
nd,all_others,all_others,kidder,112
nd,all_others,all_others,lamoure,111
nd,all_others,all_others,logan,112
nd,all_others,all_others,mchenry,113
nd,all_others,all_others,mcintosh,112
nd,all_others,all_others,mckenzie,113
nd,all_others,all_others,mclean,113
nd,all_others,all_others,mercer,113
nd,all_others,all_others,morton,113
nd,all_others,all_others,mountrail,113
nd,all_others,all_others,nelson,122
nd,all_others,all_others,oliver,113
nd,all_others,all_others,pembina,112
nd,all_others,all_others,pierce,112
nd,all_others,all_others,ramsey,112
nd,all_others,all_others,ransom,111
nd,all_others,all_others,renville,113
nd,all_others,all_others,richland,111
nd,all_others,all_others,rolette,113
nd,all_others,all_others,sargent,111
nd,all_others,all_others,sheridan,113
nd,all_others,all_others,sioux,113
nd,all_others,all_others,slope,113
nd,all_others,all_others,stark,113
nd,all_others,dickinson,stark,133
nd,all_others,all_others,steele,111
nd,all_others,all_others,stutsman,112
nd,all_others,jamestown,stutsman,132
nd,all_others,all_others,towner,112
nd,all_others,all_others,traill,111
nd,all_others,all_others,walsh,112
nd,all_others,all_others,ward,113
nd,all_others,minot,ward,132
nd,all_others,all_others,wells,113
nd,all_others,all_others,williams,113
oh,all_others,all_others,adams,113
oh,all_others,all_others,allen,111
oh,all_others,lima,allen,181
oh,all_others,all_others,ashland,112
oh,all_others,all_others,ashtabula,113
oh,all_others,all_others,athens,113
oh,all_others,all_others,auglaize,111
oh,all_others,all_others,belmont,113
oh,all_others,all_others,brown,112
oh,all_others,all_others,butler,111
oh,all_others,hamilton,butler,181
oh,all_others,middletown,butler,181
oh,all_others,all_others,carroll,113
oh,all_others,all_others,champaign,111
oh,all_others,all_others,clark,111
oh,all_others,springfield,clark,181
oh,all_others,all_others,clermont,112
oh,all_others,all_others,clinton,111
oh,all_others,all_others,columbiana,113
oh,all_others,all_others,coshocton,113
oh,all_others,all_others,crawford,111
oh,all_others,all_others,cuyahoga,113
oh,all_others,cleveland,cuyahoga,143
oh,all_others,cleveland_heights,cuyahoga,183
oh,all_others,east_cleveland,cuyahoga,183
oh,all_others,euclid,cuyahoga,183
oh,all_others,lakewood,cuyahoga,183
oh,all_others,lyndhurst,cuyahoga,183
oh,all_others,rocky_river,cuyahoga,183
oh,all_others,shaker_heights,cuyahoga,183
oh,all_others,south_euclid,cuyahoga,183
oh,all_others,university_heights,cuyahoga,183
oh,all_others,all_others,darke,111
oh,all_others,all_others,defiance,111
oh,all_others,all_others,delaware,112
oh,all_others,all_others,erie,112
oh,all_others,sandusky,erie,182
oh,all_others,all_others,fairfield,112
oh,all_others,columbus,fairfield,152
oh,all_others,all_others,fayette,112
oh,all_others,all_others,franklin,112
oh,all_others,columbus,franklin,152
oh,all_others,upper_arlington,franklin,182
oh,all_others,all_others,fulton,111
oh,all_others,all_others,gallia,113
oh,all_others,all_others,geauga,113
oh,all_others,all_others,greene,111
oh,all_others,all_others,guernsey,113
oh,all_others,all_others,hamilton,112
oh,all_others,cincinnati,hamilton,132
oh,all_others,norwood,hamilton,182
oh,all_others,all_others,hancock,111
oh,all_others,all_others,hardin,111
oh,all_others,all_others,harrison,113
oh,all_others,all_others,henry,111
oh,all_others,all_others,highland,112
oh,all_others,all_others,hocking,113
oh,all_others,all_others,holmes,113
oh,all_others,all_others,huron,112
oh,all_others,all_others,jackson,113
oh,all_others,all_others,jefferson,113
oh,all_others,all_others,knox,112
oh,all_others,all_others,lake,113
oh,all_others,all_others,lawrence,113
oh,all_others,all_others,licking,112
oh,all_others,all_others,logan,111
oh,all_others,all_others,lorain,112
oh,all_others,lorain,lorain,182
oh,all_others,all_others,lucas,111
oh,all_others,toledo,lucas,171
oh,all_others,all_others,madison,111
oh,all_others,all_others,mahoning,113
oh,all_others,youngstown,mahoning,183
oh,all_others,all_others,marion,111
oh,all_others,all_others,medina,112
oh,all_others,all_others,meigs,113
oh,all_others,all_others,mercer,111
oh,all_others,all_others,miami,111
oh,all_others,all_others,monroe,113
oh,all_others,all_others,montgomery,111
oh,all_others,dayton,montgomery,161
oh,all_others,all_others,morgan,113
oh,all_others,all_others,morrow,112
oh,all_others,all_others,muskingum,113
oh,all_others,all_others,noble,113
oh,all_others,all_others,ottawa,111
oh,all_others,all_others,paulding,111
oh,all_others,all_others,perry,113
oh,all_others,all_others,pickaway,112
oh,all_others,all_others,pike,113
oh,all_others,all_others,portage,113
oh,all_others,all_others,preble,111
oh,all_others,all_others,putnam,111
oh,all_others,all_others,richland,112
oh,all_others,all_others,ross,113
oh,all_others,all_others,sandusky,111
oh,all_others,all_others,scioto,113
oh,all_others,all_others,seneca,111
oh,all_others,all_others,shelby,111
oh,all_others,all_others,stark,112
oh,all_others,canton,stark,182
oh,all_others,massilon,stark,182
oh,all_others,all_others,summit,113
oh,all_others,akron,summit,123
oh,all_others,cuyahoga_falls,summit,183
oh,all_others,all_others,trumbull,113
oh,all_others,youngstown,trumbull,183
oh,all_others,all_others,tuscarawas,113
oh,all_others,all_others,union,111
oh,all_others,all_others,vanwert,111
oh,all_others,all_others,vinton,113
oh,all_others,all_others,warren,111
oh,all_others,middletown,warren,181
oh,all_others,all_others,washington,113
oh,all_others,all_others,wayne,112
oh,all_others,all_others,williams,111
oh,all_others,all_others,wood,111
oh,all_others,all_others,wyandot,111
ok,all_others,all_others,adair,114
ok,all_others,all_others,alfalfa,112
ok,all_others,all_others,atoka,113
ok,all_others,all_others,beaver,114
ok,all_others,all_others,beckham,114
ok,all_others,all_others,blaine,112
ok,all_others,all_others,bryan,113
ok,all_others,all_others,caddo,112
ok,all_others,all_others,canadian,111
ok,all_others,oklahoma_city,canadian,121
ok,all_others,all_others,carter,111
ok,all_others,all_others,cherokee,113
ok,all_others,all_others,choctaw,113
ok,all_others,all_others,cimarron,114
ok,all_others,all_others,cleveland,111
ok,all_others,moore,cleveland,141
ok,all_others,norman,cleveland,141
ok,all_others,oklahoma_city,cleveland,121
ok,all_others,all_others,coal,113
ok,all_others,all_others,comanche,111
ok,all_others,lawton,comanche,141
ok,all_others,all_others,cotton,112
ok,all_others,all_others,craig,111
ok,all_others,all_others,creek,111
ok,all_others,all_others,custer,112
ok,all_others,all_others,delaware,113
ok,all_others,all_others,dewey,112
ok,all_others,all_others,ellis,114
ok,all_others,all_others,garfield,111
ok,all_others,enid,garfield,141
ok,all_others,all_others,garvin,111
ok,all_others,all_others,grady,111
ok,all_others,all_others,grant,112
ok,all_others,all_others,greer,112
ok,all_others,all_others,harmon,114
ok,all_others,all_others,harper,114
ok,all_others,all_others,haskell,113
ok,all_others,all_others,hughes,111
ok,all_others,all_others,jackson,114
ok,all_others,all_others,jefferson,111
ok,all_others,all_others,johnston,113
ok,all_others,all_others,kay,111
ok,all_others,all_others,kingfisher,111
ok,all_others,all_others,kiowa,112
ok,all_others,all_others,latimer,114
ok,all_others,all_others,le_flore,114
ok,all_others,all_others,lincoln,111
ok,all_others,all_others,logan,111
ok,all_others,all_others,love,113
ok,all_others,all_others,mcclain,111
ok,all_others,oklahoma_city,mcclain,121
ok,all_others,all_others,mccurtain,114
ok,all_others,all_others,mcintosh,111
ok,all_others,all_others,major,112
ok,all_others,all_others,marshall,113
ok,all_others,all_others,mayes,111
ok,all_others,all_others,murray,111
ok,all_others,all_others,muskogee,111
ok,all_others,muskogee,muskogee,141
ok,all_others,all_others,noble,111
ok,all_others,all_others,nowata,111
ok,all_others,all_others,okfuskee,111
ok,all_others,all_others,oklahoma,111
ok,all_others,edmond,oklahoma,141
ok,all_others,midwest_city,oklahoma,141
ok,all_others,oklahoma_city,oklahoma,121
ok,all_others,all_others,okmulgee,111
ok,all_others,all_others,osage,111
ok,all_others,tulsa,osage,131
ok,all_others,all_others,ottawa,113
ok,all_others,all_others,pawnee,111
ok,all_others,all_others,payne,111
ok,all_others,stillwater,payne,141
ok,all_others,all_others,pittsburg,113
ok,all_others,all_others,pontotoc,113
ok,all_others,all_others,pottawatomie,111
ok,all_others,oklahoma_city,pottawatomie,121
ok,all_others,all_others,pushmataha,114
ok,all_others,all_others,roger_mills,114
ok,all_others,all_others,rogers,111
ok,all_others,all_others,seminole,111
ok,all_others,all_others,sequoyah,113
ok,all_others,all_others,stephens,111
ok,all_others,all_others,texas,114
ok,all_others,all_others,tillman,112
ok,all_others,all_others,tulsa,111
ok,all_others,tulsa,tulsa,131
ok,all_others,all_others,wagoner,111
ok,all_others,all_others,washington,111
ok,all_others,bartlesville,washington,141
ok,all_others,all_others,washita,112
ok,all_others,all_others,woods,112
ok,all_others,all_others,woodward,112
or,all_others,all_others,baker,110
or,all_others,all_others,benton,110
or,all_others,corvallis,benton,130
or,all_others,all_others,clackamas,110
or,all_others,lake_oswego,clackamas,130
or,all_others,milwaukie,clackamas,130
or,all_others,all_others,clatsop,110
or,all_others,all_others,columbia,110
or,all_others,all_others,coos,110
or,all_others,all_others,crook,110
or,all_others,all_others,curry,110
or,all_others,all_others,deschutes,110
or,all_others,all_others,douglas,110
or,all_others,roseburg,douglas,130
or,all_others,all_others,gilliam,110
or,all_others,all_others,grant,110
or,all_others,all_others,harney,110
or,all_others,all_others,hood_river,110
or,all_others,all_others,jackson,110
or,all_others,medford,jackson,130
or,all_others,all_others,jefferson,110
or,all_others,all_others,josephine,110
or,all_others,grants_pass,josephine,130
or,all_others,all_others,klamath,110
or,all_others,klamath_falls,klamath,130
or,all_others,all_others,lake,110
or,all_others,all_others,lane,110
or,all_others,eugene,lane,130
or,all_others,springfield,lane,130
or,all_others,all_others,lincoln,110
or,all_others,all_others,linn,110
or,all_others,albany,linn,130
or,all_others,all_others,malheur,110
or,all_others,all_others,marion,110
or,all_others,salem,marion,130
or,all_others,all_others,morrow,110
or,all_others,all_others,multnomah,110
or,all_others,gresham,multnomah,130
or,all_others,portland,multnomah,120
or,all_others,all_others,polk,110
or,all_others,all_others,sherman,110
or,all_others,all_others,tillamook,110
or,all_others,all_others,umatilla,110
or,all_others,all_others,union,110
or,all_others,all_others,wallowa,110
or,all_others,all_others,wasco,110
or,all_others,all_others,washington,110
or,all_others,beaverton,washington,130
or,all_others,hillsboro,washington,130
or,all_others,all_others,wheeler,110
or,all_others,all_others,yamhill,110
pa,all_others,all_others,adams,110
pa,all_others,all_others,allegheny,150
pa,all_others,monroeville,allegheny,190
pa,all_others,mt_lebanon,allegheny,190
pa,all_others,penn_hills,allegheny,190
pa,all_others,pittsburgh,allegheny,190
pa,all_others,all_others,armstrong,130
pa,all_others,all_others,beaver,130
pa,all_others,all_others,bedford,120
pa,all_others,all_others,berks,110
pa,all_others,reading,berks,160
pa,all_others,all_others,blair,120
pa,all_others,altoona,blair,170
pa,all_others,all_others,bradford,130
pa,all_others,all_others,bucks,110
pa,all_others,all_others,butler,130
pa,all_others,all_others,cambria,130
pa,all_others,johnstown,cambria,180
pa,all_others,all_others,cameron,130
pa,all_others,all_others,carbon,120
pa,all_others,all_others,centre,120
pa,all_others,all_others,chester,110
pa,all_others,all_others,clarion,130
pa,all_others,all_others,clearfield,130
pa,all_others,all_others,clinton,120
pa,all_others,all_others,columbia,120
pa,all_others,all_others,crawford,130
pa,all_others,all_others,cumberland,110
pa,all_others,all_others,dauphin,110
pa,all_others,harrisburg,dauphin,160
pa,all_others,all_others,delaware,110
pa,all_others,chester,delaware,160
pa,all_others,all_others,elk,130
pa,all_others,all_others,erie,130
pa,all_others,erie,erie,180
pa,all_others,all_others,fayette,130
pa,all_others,all_others,forest,130
pa,all_others,all_others,franklin,110
pa,all_others,all_others,fulton,120
pa,all_others,all_others,greene,130
pa,all_others,all_others,huntington,120
pa,all_others,all_others,indiana,130
pa,all_others,all_others,jefferson,130
pa,all_others,all_others,juniata,120
pa,all_others,all_others,lackawanna,130
pa,all_others,scranton,lackawanna,180
pa,all_others,all_others,lancaster,110
pa,all_others,lancaster,lancaster,160
pa,all_others,all_others,lawrence,130
pa,all_others,all_others,lebanon,110
pa,all_others,lebanon,lebanon,160
pa,all_others,all_others,lehigh,110
pa,all_others,allentown,lehigh,160
pa,all_others,bethlehem,lehigh,160
pa,all_others,all_others,luzerne,130
pa,all_others,all_others,lycoming,120
pa,all_others,williamsport,lycoming,170
pa,all_others,all_others,mckean,130
pa,all_others,all_others,mercer,130
pa,all_others,all_others,mifflin,120
pa,all_others,all_others,monroe,120
pa,all_others,all_others,montgomery,110
pa,all_others,norristown,montgomery,160
pa,all_others,all_others,montour,120
pa,all_others,all_others,northampton,110
pa,all_others,bethlehem,northampton,160
pa,all_others,all_others,northumberland,120
pa,all_others,all_others,perry,120
pa,all_others,all_others,philadelphia,140
pa,all_others,philadelphia,philadelphia,140
pa,all_others,all_others,pike,120
pa,all_others,all_others,potter,130
pa,all_others,all_others,schuylkill,120
pa,all_others,all_others,snyder,120
pa,all_others,all_others,somerset,130
pa,all_others,all_others,sullivan,130
pa,all_others,all_others,susquehanna,130
pa,all_others,all_others,tioga,130
pa,all_others,all_others,union,120
pa,all_others,all_others,venango,130
pa,all_others,all_others,warren,130
pa,all_others,all_others,washington,130
pa,all_others,all_others,wayne,130
pa,all_others,all_others,westmoreland,130
pa,all_others,all_others,wyoming,130
pa,all_others,all_others,york,110
pa,all_others,york,york,160
sc,all_others,all_others,abbeville,113
sc,all_others,all_others,aiken,113
sc,all_others,aiken,aiken,123
sc,all_others,all_others,allendale,113
sc,all_others,all_others,anderson,113
sc,all_others,anderson,anderson,123
sc,all_others,all_others,bamberg,113
sc,all_others,all_others,barnwell,113
sc,all_others,all_others,beaufort,114
sc,all_others,beaufort_seacoast,beaufort,124
sc,all_others,beach_area_a,beaufort,115
sc,all_others,yemassee,beaufort,111
sc,all_others,all_others,berkeley,111
sc,all_others,goose,berkeley,121
sc,all_others,hanahan,berkeley,121
sc,all_others,all_others,calhoun,113
sc,all_others,all_others,charleston,114
sc,all_others,beach_area_b,charleston,115
sc,all_others,charleston_seacoast,charleston,124
sc,all_others,n_charleston_seacoast,charleston,124
sc,all_others,all_others,cherokee,113
sc,all_others,all_others,chester,113
sc,all_others,all_others,chesterfield,112
sc,all_others,all_others,clarendon,112
sc,all_others,all_others,colleton,112
sc,all_others,edisto,colleton,115
sc,all_others,all_others,darlington,112
sc,all_others,all_others,dillon,111
sc,all_others,all_others,dorchester,111
sc,all_others,all_others,edgefield,113
sc,all_others,all_others,fairfield,113
sc,all_others,all_others,florence,111
sc,all_others,florence,florence,121
sc,all_others,all_others,georgetown,111
sc,all_others,seacoast_c,georgetown,114
sc,all_others,beach_area_d,georgetown,115
sc,all_others,all_others,greenville,113
sc,all_others,greenville,greenville,123
sc,all_others,all_others,greenwood,113
sc,all_others,greenwood,greenwood,123
sc,all_others,all_others,hampton,112
sc,all_others,all_others,horry,111
sc,all_others,seacoast_e,horry,114
sc,all_others,beach_area_f,horry,115
sc,all_others,all_others,jasper,112
sc,all_others,all_others,kershaw,113
sc,all_others,all_others,lancaster,113
sc,all_others,all_others,laurens,113
sc,all_others,all_others,lee,112
sc,all_others,all_others,lexington,113
sc,all_others,all_others,mccormick,113
sc,all_others,all_others,marion,111
sc,all_others,all_others,marlboro,112
sc,all_others,all_others,newberry,113
sc,all_others,all_others,oconee,113
sc,all_others,all_others,orangeburg,112
sc,all_others,all_others,pickens,113
sc,all_others,all_others,richland,113
sc,all_others,all_others,richland,123
sc,all_others,all_others,saluda,113
sc,all_others,all_others,spartanburg,113
sc,all_others,all_others,sumter,112
sc,all_others,sumter,sumter,122
sc,all_others,all_others,union,113
sc,all_others,all_others,williamsburg,111
sc,all_others,all_others,york,113
sc,all_others,rock_hill,york,123
sd,all_others,all_others,aurora,111
sd,all_others,all_others,beadle,111
sd,all_others,all_others,bennett,112
sd,all_others,all_others,bon_homme,111
sd,all_others,all_others,brookings,111
sd,all_others,all_others,brown,112
sd,all_others,all_others,brule,112
sd,all_others,all_others,buffalo,112
sd,all_others,all_others,butte,112
sd,all_others,all_others,campbell,112
sd,all_others,all_others,charles_mix,111
sd,all_others,all_others,clark,111
sd,all_others,all_others,clay,111
sd,all_others,all_others,codington,111
sd,all_others,all_others,corson,112
sd,all_others,all_others,custer,112
sd,all_others,all_others,davison,111
sd,all_others,mitchell,davison,121
sd,all_others,all_others,day,111
sd,all_others,all_others,deuel,111
sd,all_others,all_others,dewey,112
sd,all_others,all_others,douglas,111
sd,all_others,all_others,edmunds,112
sd,all_others,all_others,fall_river,112
sd,all_others,all_others,faulk,112
sd,all_others,all_others,grant,111
sd,all_others,all_others,gregory,112
sd,all_others,all_others,haakon,112
sd,all_others,all_others,hamlin,111
sd,all_others,all_others,hand,112
sd,all_others,all_others,hanson,111
sd,all_others,all_others,harding,112
sd,all_others,all_others,hughes,112
sd,all_others,pierre,hughes,122
sd,all_others,all_others,hutchinson,111
sd,all_others,all_others,hyde,112
sd,all_others,all_others,jackson,112
sd,all_others,all_others,jerauld,112
sd,all_others,all_others,jones,112
sd,all_others,all_others,kingsbury,111
sd,all_others,all_others,lake,111
sd,all_others,all_others,lawrence,112
sd,all_others,all_others,lincoln,111
sd,all_others,all_others,lyman,112
sd,all_others,all_others,mccook,111
sd,all_others,all_others,mcpherson,112
sd,all_others,all_others,marshall,111
sd,all_others,all_others,meade,112
sd,all_others,all_others,mellette,112
sd,all_others,all_others,miner,111
sd,all_others,all_others,minnehaha,111
sd,all_others,sioux_falls,minnehaha,121
sd,all_others,all_others,moody,111
sd,all_others,all_others,pennington,112
sd,all_others,rapid_city,pennington,122
sd,all_others,all_others,perkins,112
sd,all_others,all_others,potter,112
sd,all_others,all_others,roberts,111
sd,all_others,all_others,sanborn,111
sd,all_others,all_others,shannon,112
sd,all_others,all_others,spink,112
sd,all_others,all_others,stanley,112
sd,all_others,all_others,sully,112
sd,all_others,all_others,todd,112
sd,all_others,all_others,tripp,112
sd,all_others,all_others,turner,111
sd,all_others,all_others,union,111
sd,all_others,all_others,walworth,112
sd,all_others,all_others,yankton,111
sd,all_others,all_others,ziebach,112
tn,all_others,all_others,anderson,113
tn,all_others,all_others,bedford,112
tn,all_others,all_others,benton,111
tn,all_others,all_others,bledsoe,113
tn,all_others,all_others,blount,113
tn,all_others,all_others,bradley,112
tn,all_others,all_others,campbell,113
tn,all_others,all_others,cannon,112
tn,all_others,all_others,carroll,111
tn,all_others,all_others,carter,113
tn,all_others,all_others,cheatham,112
tn,all_others,all_others,chester,111
tn,all_others,all_others,claiborne,113
tn,all_others,all_others,clay,112
tn,all_others,all_others,cocke,113
tn,all_others,all_others,coffee,112
tn,all_others,all_others,crockett,111
tn,all_others,all_others,cumberland,113
tn,all_others,all_others,davidson,112
tn,all_others,nashville,davidson,132
tn,all_others,all_others,decatur,111
tn,all_others,all_others,dekalb,113
tn,all_others,all_others,dickson,112
tn,all_others,all_others,dyer,111
tn,all_others,all_others,fayette,111
tn,all_others,all_others,fentress,113
tn,all_others,all_others,franklin,112
tn,all_others,all_others,gibson,111
tn,all_others,all_others,giles,112
tn,all_others,all_others,grainger,113
tn,all_others,all_others,greene,113
tn,all_others,all_others,grundy,112
tn,all_others,all_others,hamblen,113
tn,all_others,all_others,hamilton,112
tn,all_others,all_others,hancock,113
tn,all_others,all_others,hardeman,111
tn,all_others,all_others,hardin,111
tn,all_others,all_others,hawkins,113
tn,all_others,all_others,haywood,111
tn,all_others,all_others,henderson,111
tn,all_others,all_others,henry,111
tn,all_others,all_others,hickman,112
tn,all_others,all_others,houston,112
tn,all_others,all_others,humphreys,112
tn,all_others,all_others,jackson,113
tn,all_others,all_others,jefferson,113
tn,all_others,all_others,johnson,113
tn,all_others,all_others,knox,113
tn,all_others,all_others,lake,111
tn,all_others,all_others,lauderdale,111
tn,all_others,all_others,lawrence,112
tn,all_others,all_others,lewis,112
tn,all_others,all_others,lincoln,112
tn,all_others,all_others,loudon,113
tn,all_others,all_others,mcminn,113
tn,all_others,all_others,mcnairy,111
tn,all_others,all_others,macon,112
tn,all_others,all_others,madison,111
tn,all_others,all_others,marion,112
tn,all_others,all_others,marshall,112
tn,all_others,all_others,maury,112
tn,all_others,all_others,meigs,113
tn,all_others,all_others,monroe,113
tn,all_others,all_others,montgomery,112
tn,all_others,all_others,moore,112
tn,all_others,all_others,morgan,113
tn,all_others,all_others,obion,111
tn,all_others,all_others,overton,113
tn,all_others,all_others,perry,112
tn,all_others,all_others,pickett,113
tn,all_others,all_others,polk,113
tn,all_others,all_others,putnam,113
tn,all_others,all_others,rhea,113
tn,all_others,all_others,roane,113
tn,all_others,all_others,robertson,112
tn,all_others,all_others,rutherford,112
tn,all_others,all_others,scott,113
tn,all_others,all_others,sequatchie,113
tn,all_others,all_others,sevier,113
tn,all_others,all_others,shelby,111
tn,all_others,memphis,shelby,121
tn,all_others,all_others,smith,113
tn,all_others,all_others,stewart,112
tn,all_others,all_others,sullivan,113
tn,all_others,all_others,sumner,112
tn,all_others,all_others,tipton,111
tn,all_others,all_others,trousdale,112
tn,all_others,all_others,unicoi,113
tn,all_others,all_others,union,113
tn,all_others,all_others,van_buren,113
tn,all_others,all_others,warren,112
tn,all_others,all_others,washington,113
tn,all_others,all_others,wayne,112
tn,all_others,all_others,weakley,111
tn,all_others,all_others,white,113
tn,all_others,all_others,williamson,112
tn,all_others,all_others,wilson,112
tx,all_others,all_others,anderson,117
tx,all_others,all_others,andrews,114
tx,all_others,all_others,angelina,117
tx,all_others,all_others,aransas,115
tx,all_others,all_others,archer,115
tx,all_others,all_others,armstrong,115
tx,all_others,all_others,atascosa,118
tx,all_others,all_others,austin,113
tx,all_others,all_others,bailey,115
tx,all_others,all_others,bandera,118
tx,all_others,all_others,bastrop,118
tx,all_others,all_others,baylor,115
tx,all_others,all_others,bee,113
tx,all_others,all_others,bell,118
tx,all_others,temple,bell,128
tx,all_others,all_others,bexar,118
tx,all_others,balconies_heights,bexar,128
tx,all_others,san_antonio,bexar,128
tx,all_others,all_others,blanco,118
tx,all_others,all_others,borden,115
tx,all_others,all_others,bosque,117
tx,all_others,all_others,bowie,117
tx,all_others,all_others,brazoria,112
tx,z_77541,all_others,brazoria,111
tx,z_77542,all_others,brazoria,111
tx,all_others,all_others,brazos,117
tx,all_others,college_station,brazos,127
tx,all_others,all_others,brewster,118
tx,all_others,all_others,briscoe,115
tx,all_others,all_others,brooks,113
tx,all_others,all_others,brown,118
tx,all_others,all_others,burleson,117
tx,all_others,all_others,burnet,118
tx,all_others,all_others,caldwell,118
tx,all_others,all_others,calhoun,111
tx,all_others,all_others,callahan,114
tx,all_others,all_others,cameron,112
tx,z_78578,all_others,cameron,111
tx,z_78597,all_others,cameron,111
tx,all_others,all_others,camp,117
tx,all_others,all_others,carson,115
tx,all_others,all_others,cass,117
tx,all_others,all_others,castro,115
tx,all_others,all_others,chambers,112
tx,z_77514,all_others,chambers,111
tx,z_77661,all_others,chambers,111
tx,z_77665,all_others,chambers,111
tx,all_others,all_others,cherokee,117
tx,all_others,all_others,childress,115
tx,all_others,all_others,clay,115
tx,all_others,all_others,cochran,115
tx,all_others,all_others,coke,114
tx,all_others,all_others,coleman,114
tx,all_others,all_others,collin,116
tx,all_others,allen,collin,136
tx,all_others,carrollton,collin,126
tx,all_others,dallas,collin,136
tx,all_others,garland,collin,126
tx,all_others,plano,collin,146
tx,all_others,all_others,collingsworth,115
tx,all_others,all_others,colorado,113
tx,all_others,all_others,comal,118
tx,all_others,all_others,comanche,118
tx,all_others,all_others,concho,114
tx,all_others,all_others,cooke,116
tx,all_others,all_others,coryell,118
tx,all_others,all_others,cottle,115
tx,all_others,all_others,crane,114
tx,all_others,all_others,crockett,118
tx,all_others,all_others,crosby,115
tx,all_others,all_others,culberson,118
tx,all_others,all_others,dallam,115
tx,all_others,all_others,dallas,116
tx,all_others,addison,dallas,126
tx,all_others,carrollton,dallas,126
tx,all_others,coppell,dallas,126
tx,all_others,dallas_fort_worth_international_airport,dallas,126
tx,all_others,dallas,dallas,136
tx,all_others,desoto,dallas,126
tx,all_others,ducanville,dallas,126
tx,all_others,farmers_branch,dallas,126
tx,all_others,garland,dallas,126
tx,all_others,irving,dallas,136
tx,all_others,mesquite,dallas,126
tx,all_others,all_others,dawson,115
tx,all_others,all_others,deaf_smith,115
tx,all_others,all_others,delta,116
tx,all_others,all_others,denton,116
tx,all_others,carrollton,denton,126
tx,all_others,dallas,denton,136
tx,all_others,plano,denton,146
tx,all_others,all_others,de_witt,113
tx,all_others,all_others,dickens,115
tx,all_others,all_others,dimmit,118
tx,all_others,all_others,donley,115
tx,all_others,all_others,duval,113
tx,all_others,all_others,eastland,118
tx,all_others,all_others,ector,114
tx,all_others,all_others,edwards,118
tx,all_others,all_others,ellis,116
tx,all_others,waxahachie,ellis,126
tx,all_others,all_others,el_paso,118
tx,all_others,el_paso,el_paso,128
tx,all_others,all_others,erath,118
tx,all_others,all_others,falls,117
tx,all_others,all_others,fannin,116
tx,all_others,all_others,fayette,117
tx,all_others,all_others,fisher,115
tx,all_others,all_others,floyd,115
tx,all_others,all_others,foard,115
tx,all_others,all_others,fort_bend,113
tx,all_others,houston,fort_bend,123
tx,all_others,sugar_land,fort_bend,123
tx,all_others,all_others,franklin,116
tx,all_others,all_others,freestone,117
tx,all_others,all_others,frio,118
tx,all_others,all_others,gaines,115
tx,all_others,all_others,galveston,112
tx,z_77518,all_others,galveston,111
tx,z_77539,all_others,galveston,111
tx,z_77550,all_others,galveston,111
tx,z_77551,all_others,galveston,111
tx,z_77552,all_others,galveston,111
tx,z_77553,all_others,galveston,111
tx,z_77554,all_others,galveston,111
tx,z_77555,all_others,galveston,111
tx,z_77563,all_others,galveston,111
tx,z_77565,all_others,galveston,111
tx,z_77568,all_others,galveston,111
tx,z_77590,all_others,galveston,111
tx,z_77591,all_others,galveston,111
tx,z_77592,all_others,galveston,111
tx,z_77617,all_others,galveston,111
tx,z_77623,all_others,galveston,111
tx,z_77560,all_others,galveston,111
tx,all_others,all_others,garza,115
tx,all_others,all_others,gillespie,118
tx,all_others,all_others,glasscock,114
tx,all_others,all_others,goliad,113
tx,all_others,all_others,gonzales,117
tx,all_others,all_others,gray,115
tx,all_others,all_others,grayson,116
tx,all_others,all_others,gregg,117
tx,all_others,longview,gregg,127
tx,all_others,all_others,grimes,117
tx,all_others,all_others,guadalupe,118
tx,all_others,all_others,hale,115
tx,all_others,all_others,hall,115
tx,all_others,all_others,hamilton,118
tx,all_others,all_others,hansford,115
tx,all_others,all_others,hardeman,115
tx,all_others,all_others,hardin,113
tx,all_others,all_others,harris,117
tx,all_others,houston,harris,127
tx,all_others,hunter_creek_village,harris,127
tx,all_others,all_others,harrison,117
tx,all_others,longview,harrison,127
tx,all_others,all_others,hartley,115
tx,all_others,all_others,haskel,115
tx,all_others,all_others,hays,118
tx,all_others,all_others,hemphill,115
tx,all_others,all_others,henderson,116
tx,all_others,all_others,hidalgo,113
tx,all_others,all_others,hill,117
tx,all_others,all_others,hockley,115
tx,all_others,all_others,hood,117
tx,all_others,all_others,hopkins,116
tx,all_others,all_others,houston,117
tx,all_others,all_others,howard,114
tx,all_others,all_others,hudspeth,118
tx,all_others,all_others,hunt,116
tx,all_others,all_others,hutchinson,115
tx,all_others,all_others,irion,114
tx,all_others,all_others,jack,117
tx,all_others,all_others,jackson,113
tx,all_others,all_others,jasper,113
tx,all_others,all_others,jeffdavis,118
tx,all_others,all_others,jefferson,112
tx,z_77619,all_others,jefferson,111
tx,z_77622,all_others,jefferson,111
tx,z_77627,all_others,jefferson,111
tx,z_77640,all_others,jefferson,111
tx,z_77641,all_others,jefferson,111
tx,z_77642,all_others,jefferson,111
tx,z_77643,all_others,jefferson,111
tx,z_77651,all_others,jefferson,111
tx,z_77655,all_others,jefferson,111
tx,z_77705,all_others,jefferson,111
tx,z_77725,all_others,jefferson,111
tx,all_others,all_others,jim_hogg,118
tx,all_others,all_others,jim_wells,113
tx,all_others,all_others,johnson,116
tx,all_others,all_others,jones,115
tx,all_others,abilene,jones,125
tx,all_others,all_others,karnes,113
tx,all_others,all_others,kaufman,116
tx,all_others,dallas,kaufman,136
tx,all_others,mesquite,kaufman,126
tx,all_others,all_others,kendall,118
tx,all_others,all_others,kenedy,112
tx,z_00188,all_others,kenedy,111
tx,all_others,all_others,kent,115
tx,all_others,all_others,kerr,118
tx,all_others,all_others,kimble,118
tx,all_others,all_others,king,115
tx,all_others,all_others,kinney,118
tx,all_others,all_others,kleberg,112
tx,all_others,all_others,knox,115
tx,all_others,all_others,lamar,116
tx,all_others,all_others,lamb,115
tx,all_others,all_others,lampasas,118
tx,all_others,all_others,la_salle,118
tx,all_others,all_others,lavaca,113
tx,all_others,all_others,lee,117
tx,all_others,all_others,leon,117
tx,all_others,all_others,liberty,113
tx,all_others,all_others,limestone,117
tx,all_others,all_others,lipscomb,115
tx,all_others,all_others,live_oak,113
tx,all_others,all_others,llano,118
tx,all_others,all_others,loving,118
tx,all_others,all_others,lubbock,115
tx,all_others,lubbock,lubbock,125
tx,all_others,all_others,lynn,115
tx,all_others,all_others,mcculloch,118
tx,all_others,all_others,mcclennan,117
tx,all_others,all_others,mcmullen,113
tx,all_others,all_others,madison,117
tx,all_others,all_others,marion,117
tx,all_others,all_others,martin,114
tx,all_others,midland,martin,124
tx,all_others,all_others,mason,118
tx,all_others,all_others,matagorda,112
tx,z_77428,all_others,matagorda,111
tx,z_77457,all_others,matagorda,111
tx,z_77465,all_others,matagorda,111
tx,all_others,all_others,maverick,118
tx,all_others,eagle_pass,maverick,128
tx,all_others,all_others,medina,118
tx,all_others,all_others,menard,118
tx,all_others,all_others,midland,114
tx,all_others,midland,midland,124
tx,all_others,all_others,milam,117
tx,all_others,all_others,mills,118
tx,all_others,all_others,mitchell,114
tx,all_others,all_others,montague,117
tx,all_others,all_others,montgomery,113
tx,all_others,houston,montgomery,123
tx,all_others,all_others,moore,115
tx,all_others,all_others,morris,117
tx,all_others,all_others,motley,115
tx,all_others,all_others,nacogdoches,117
tx,all_others,all_others,navarro,116
tx,all_others,all_others,newton,113
tx,all_others,all_others,nolan,114
tx,all_others,all_others,nueces,112
tx,z_78373,all_others,nueces,111
tx,z_78412,all_others,nueces,111
tx,z_78418,all_others,nueces,111
tx,z_78419,all_others,nueces,111
tx,z_78468,all_others,nueces,111
tx,z_78480,all_others,nueces,111
tx,all_others,all_others,ochiltree,115
tx,all_others,all_others,oldham,115
tx,all_others,all_others,orange,112
tx,z_77611,all_others,orange,111
tx,all_others,all_others,palo_pinto,117
tx,all_others,all_others,panola,117
tx,all_others,all_others,parker,117
tx,all_others,all_others,parmer,115
tx,all_others,all_others,pecos,118
tx,all_others,all_others,polk,113
tx,all_others,all_others,potter,115
tx,all_others,all_others,presidio,118
tx,all_others,all_others,rains,116
tx,all_others,all_others,randall,115
tx,all_others,canyon,randall,125
tx,all_others,all_others,reagan,114
tx,all_others,all_others,real,118
tx,all_others,all_others,red_river,117
tx,all_others,all_others,reeves,118
tx,all_others,all_others,refugio,112
tx,z_78340,all_others,refugio,111
tx,all_others,all_others,roberts,115
tx,all_others,all_others,robertson,117
tx,all_others,all_others,rockwall,116
tx,all_others,dallas,rockwall,136
tx,all_others,garland,rockwall,126
tx,all_others,all_others,runnels,114
tx,all_others,all_others,rusk,117
tx,all_others,all_others,sabine,117
tx,all_others,all_others,san_augustin,117
tx,all_others,all_others,san_jacinto,113
tx,all_others,all_others,san_patricio,112
tx,z_78335,all_others,san_patricio,111
tx,z_78336,all_others,san_patricio,111
tx,all_others,all_others,san_saba,118
tx,all_others,all_others,schleicher,118
tx,all_others,all_others,scurry,117
tx,all_others,all_others,shackelford,115
tx,all_others,all_others,shelby,117
tx,all_others,all_others,sherman,115
tx,all_others,all_others,smith,117
tx,all_others,tyler,smith,127
tx,all_others,all_others,somervell,117
tx,all_others,all_others,starr,118
tx,all_others,all_others,stephens,117
tx,all_others,all_others,sterling,114
tx,all_others,all_others,stonewall,115
tx,all_others,all_others,sutton,118
tx,all_others,all_others,swisher,115
tx,all_others,all_others,tarrant,116
tx,all_others,arlington,tarrant,126
tx,all_others,dallas_fort_worth_international_airport,tarrant,126
tx,all_others,euless,tarrant,126
tx,all_others,all_others,taylor,114
tx,all_others,abilene,taylor,124
tx,all_others,all_others,terrell,118
tx,all_others,all_others,terry,115
tx,all_others,all_others,throckmorton,115
tx,all_others,all_others,titus,117
tx,all_others,all_others,tom_green,114
tx,all_others,all_others,travis,118
tx,all_others,austin,travis,138
tx,all_others,all_others,trinity,117
tx,all_others,all_others,tyler,113
tx,all_others,all_others,upshur,117
tx,all_others,all_others,upton,114
tx,all_others,all_others,uvalde,118
tx,all_others,all_others,val_verde,118
tx,all_others,all_others,van_zandt,116
tx,all_others,all_others,victoria,113
tx,all_others,all_others,walker,117
tx,all_others,all_others,waller,113
tx,all_others,all_others,ward,114
tx,all_others,all_others,washington,117
tx,all_others,bremond,washington,127
tx,all_others,all_others,webb,118
tx,all_others,all_others,wharton,113
tx,all_others,all_others,wheeler,115
tx,all_others,all_others,wichita,115
tx,all_others,wichita_falls,wichita,125
tx,all_others,all_others,wilbarger,115
tx,all_others,all_others,willacy,112
tx,all_others,all_others,williamson,118
tx,all_others,austin,williamson,138
tx,all_others,all_others,wilson,118
tx,all_others,all_others,winkler,114
tx,all_others,all_others,wise,117
tx,all_others,all_others,wood,117
tx,all_others,all_others,yoakum,115
tx,all_others,all_others,young,117
tx,all_others,all_others,zapata,118
tx,all_others,all_others,zavala,118
ut,all_others,all_others,beaver,110
ut,all_others,all_others,box_elder,110
ut,all_others,all_others,cache,110
ut,all_others,all_others,carbon,110
ut,all_others,all_others,daggett,110
ut,all_others,all_others,davis,110
ut,all_others,bountiful,davis,130
ut,all_others,all_others,duchesne,110
ut,all_others,all_others,emery,110
ut,all_others,all_others,garfield,110
ut,all_others,all_others,grand,110
ut,all_others,all_others,iron,110
ut,all_others,all_others,juab,110
ut,all_others,all_others,kane,110
ut,all_others,all_others,millard,110
ut,all_others,all_others,morgan,110
ut,all_others,all_others,piute,110
ut,all_others,all_others,rich,110
ut,all_others,all_others,salt_lake,110
ut,all_others,salt_lake_city,salt_lake,120
ut,all_others,west_valley_city,salt_lake,130
ut,all_others,all_others,san_juan,110
ut,all_others,all_others,sanpete,110
ut,all_others,all_others,sevier,110
ut,all_others,all_others,summit,110
ut,all_others,all_others,tooele,110
ut,all_others,all_others,uintah,110
ut,all_others,all_others,utah,110
ut,all_others,provo,utah,130
ut,all_others,all_others,wasatch,110
ut,all_others,all_others,washington,110
ut,all_others,all_others,wayne,110
ut,all_others,all_others,weber,110
ut,all_others,ogden,weber,130
va,all_others,all_others,accomack,112
va,all_others,beach_area_double_star,accomack,111
va,all_others,all_others,albemarle,114
va,all_others,all_others,alleghany,114
va,all_others,all_others,amelia,113
va,all_others,all_others,amherst,113
va,all_others,all_others,appomattox,113
va,all_others,all_others,arlington,114
va,all_others,arlington,arlington,144
va,all_others,all_others,augusta,114
va,all_others,all_others,bath,114
va,all_others,all_others,bedford,113
va,all_others,all_others,bland,114
va,all_others,all_others,botetourt,114
va,all_others,all_others,brunswick,113
va,all_others,all_others,buchanan,114
va,all_others,all_others,buckingham,114
va,all_others,all_others,campbell,113
va,all_others,all_others,caroline,114
va,all_others,all_others,carroll,114
va,all_others,all_others,charles_city,113
va,all_others,all_others,charlotte,113
va,all_others,all_others,chesterfield,113
va,all_others,all_others,clarke,114
va,all_others,all_others,craig,114
va,all_others,all_others,culpeper,114
va,all_others,all_others,cumberland,113
va,all_others,all_others,dickenson,114
va,all_others,all_others,dinwiddie,113
va,all_others,all_others,essex,113
va,all_others,all_others,fairfax,114
va,all_others,all_others,fauquier,114
va,all_others,all_others,floyd,114
va,all_others,all_others,fluvanna,114
va,all_others,all_others,franklin,114
va,all_others,all_others,frederick,114
va,all_others,all_others,giles,114
va,all_others,all_others,gloucester_star,112
va,all_others,all_others,goochland,113
va,all_others,all_others,grayson,114
va,all_others,all_others,greene,114
va,all_others,all_others,greensville,113
va,all_others,all_others,halifax,113
va,all_others,all_others,hanover,113
va,all_others,all_others,henrico,113
va,all_others,all_others,henry,113
va,all_others,all_others,highland,114
va,all_others,all_others,isle_of_wight,113
va,all_others,all_others,james_city,113
va,all_others,all_others,king_and_queen,113
va,all_others,all_others,king_george,114
va,all_others,all_others,king_william,113
va,all_others,all_others,lancaster_star,112
va,all_others,all_others,lee,114
va,all_others,all_others,loudoun,114
va,all_others,all_others,louisa,114
va,all_others,all_others,lunenburg,113
va,all_others,all_others,madison,114
va,all_others,all_others,mathews_star,112
va,all_others,all_others,mecklenburg,113
va,all_others,all_others,middlesex_star,112
va,all_others,all_others,montgomery,114
va,all_others,all_others,nelson,114
va,all_others,all_others,newkent,113
va,all_others,all_others,northampton,111
va,all_others,beach_area_double_star,northampton,112
va,all_others,all_others,northumberland_star,112
va,all_others,all_others,nottoway,113
va,all_others,all_others,orange,114
va,all_others,all_others,page,114
va,all_others,all_others,patrick,114
va,all_others,all_others,pittsylvania,113
va,all_others,all_others,powhatan,113
va,all_others,all_others,prince_edward,113
va,all_others,all_others,prince_george,113
va,all_others,all_others,prince_william,114
va,all_others,all_others,pulaski,114
va,all_others,all_others,rappahannock,114
va,all_others,all_others,richmond,113
va,all_others,all_others,roanoke,114
va,all_others,all_others,rockbridge,114
va,all_others,all_others,rockingham,114
va,all_others,all_others,russell,114
va,all_others,all_others,scott,114
va,all_others,all_others,shenandoah,114
va,all_others,all_others,smyth,114
va,all_others,all_others,southampton,113
va,all_others,all_others,spotsylvania,114
va,all_others,all_others,stafford,114
va,all_others,all_others,surry,113
va,all_others,all_others,sussex,113
va,all_others,all_others,tazewell,114
va,all_others,all_others,warren,114
va,all_others,all_others,washington,114
va,all_others,all_others,westmoreland,113
va,all_others,all_others,wise,114
va,all_others,all_others,wythe,114
va,all_others,all_others,york,112
va,all_others,bedford,all_others,112
va,all_others,bristol,all_others,112
va,all_others,buena_vista,all_others,112
va,all_others,charlottesville,all_others,112
va,all_others,chesapeake_star,all_others,112
va,all_others,clifton_forge,all_others,112
va,all_others,colonial_heights,all_others,112
va,all_others,covington,all_others,112
va,all_others,danville,all_others,112
va,all_others,emporia,all_others,112
va,all_others,fairfax,all_others,112
va,all_others,falls_church,all_others,112
va,all_others,franklin,all_others,112
va,all_others,fredericksburg,all_others,112
va,all_others,galax,all_others,112
va,all_others,hampton_star,all_others,112
va,all_others,harrisonburg,all_others,112
va,all_others,hopewell,all_others,112
va,all_others,virginia_beach,all_others,112
va,all_others,virginia_beach_beach_area_star_star,all_others,111
va,all_others,waynesboro,all_others,112
va,all_others,williamsburg,all_others,112
va,all_others,winchester,all_others,112
wa,all_others,all_others,adams,110
wa,all_others,all_others,asotin,110
wa,all_others,all_others,benton,110
wa,all_others,all_others,chelan,110
wa,all_others,all_others,clallam,110
wa,all_others,all_others,clark,110
wa,all_others,all_others,columbia,110
wa,all_others,all_others,cowlitz,110
wa,all_others,all_others,douglas,110
wa,all_others,all_others,ferry,110
wa,all_others,all_others,franklin,110
wa,all_others,all_others,garfield,110
wa,all_others,all_others,grant,110
wa,all_others,all_others,grays_harbor,110
wa,all_others,all_others,island,110
wa,all_others,all_others,jefferson,110
wa,all_others,all_others,king,110
wa,all_others,seattle,king,120
wa,all_others,all_others,kitsap,110
wa,all_others,all_others,kittitas,110
wa,all_others,all_others,klickitat,110
wa,all_others,all_others,lewis,110
wa,all_others,all_others,lincoln,110
wa,all_others,all_others,mason,110
wa,all_others,all_others,okanogan,110
wa,all_others,all_others,pacific,110
wa,all_others,all_others,pend_oreille,110
wa,all_others,all_others,pierce,110
wa,all_others,all_others,san_juan,110
wa,all_others,all_others,skagit,110
wa,all_others,all_others,skamania,110
wa,all_others,all_others,snohomish,110
wa,all_others,all_others,spokane,110
wa,all_others,all_others,stevens,110
wa,all_others,all_others,thurston,110
wa,all_others,all_others,wahkiakum,110
wa,all_others,all_others,walla_walla,110
wa,all_others,all_others,whatcom,110
wa,all_others,all_others,whitman,110
wa,all_others,all_others,yakima,110
wv,all_others,all_others,barbour,110
wv,all_others,all_others,berkeley,110
wv,all_others,all_others,boone,110
wv,all_others,all_others,braxton,110
wv,all_others,all_others,brooke,110
wv,all_others,all_others,cabell,110
wv,all_others,huntington,cabell,120
wv,all_others,all_others,calhoun,110
wv,all_others,all_others,clay,110
wv,all_others,all_others,doddridge,110
wv,all_others,all_others,fayette,110
wv,all_others,all_others,gilmer,110
wv,all_others,all_others,grant,110
wv,all_others,all_others,greenbrier,110
wv,all_others,all_others,hampshire,110
wv,all_others,all_others,hancock,110
wv,all_others,all_others,hardy,110
wv,all_others,all_others,harrison,110
wv,all_others,clarksburg,harrison,130
wv,all_others,all_others,jackson,110
wv,all_others,all_others,jefferson,110
wv,all_others,all_others,kanawha,110
wv,all_others,charleston,kanawha,120
wv,all_others,all_others,lewis,110
wv,all_others,all_others,lincoln,110
wv,all_others,all_others,logan,110
wv,all_others,all_others,mcdowell,110
wv,all_others,all_others,marion,110
wv,all_others,all_others,marshall,110
wv,all_others,all_others,mason,110
wv,all_others,all_others,mercer,110
wv,all_others,all_others,mineral,110
wv,all_others,all_others,mingo,110
wv,all_others,all_others,monongalia,110
wv,all_others,all_others,monroe,110
wv,all_others,all_others,morgan,110
wv,all_others,all_others,nicholas,110
wv,all_others,all_others,ohio,110
wv,all_others,wheeling,ohio,130
wv,all_others,all_others,pendleton,110
wv,all_others,all_others,pleasants,110
wv,all_others,all_others,pocahontas,110
wv,all_others,all_others,preston,110
wv,all_others,all_others,putnam,110
wv,all_others,all_others,raleigh,110
wv,all_others,all_others,randolph,110
wv,all_others,all_others,ritchie,110
wv,all_others,all_others,roane,110
wv,all_others,all_others,summers,110
wv,all_others,all_others,taylor,110
wv,all_others,all_others,tucker,110
wv,all_others,all_others,tyler,110
wv,all_others,all_others,upshur,110
wv,all_others,all_others,wayne,110
wv,all_others,huntington,wayne,110
wv,all_others,all_others,webster,110
wv,all_others,all_others,wetzel,110
wv,all_others,all_others,wirt,110
wv,all_others,all_others,wood,110
wv,all_others,parkersburg,wood,130
wv,all_others,all_others,wyoming,110
wv,all_others,all_others,barbour,110
wv,all_others,all_others,berkeley,110
wv,all_others,all_others,boone,110
wv,all_others,all_others,braxton,110
wv,all_others,all_others,brooke,110
wv,all_others,all_others,cabell,110
wv,all_others,huntington,cabell,120
wv,all_others,all_others,calhoun,110
wv,all_others,all_others,clay,110
wv,all_others,all_others,doddridge,110
wv,all_others,all_others,fayette,110
wv,all_others,all_others,gilmer,110
wv,all_others,all_others,grant,110
wv,all_others,all_others,greenbrier,110
wv,all_others,all_others,hampshire,110
wv,all_others,all_others,hancock,110
wv,all_others,all_others,hardy,110
wv,all_others,all_others,harrison,110
wv,all_others,clarksburg,harrison,130
wv,all_others,all_others,jackson,110
wv,all_others,all_others,jefferson,110
wv,all_others,all_others,kanawha,110
wv,all_others,charleston,kanawha,120
wv,all_others,all_others,lewis,110
wv,all_others,all_others,lincoln,110
wv,all_others,all_others,logan,110
wv,all_others,all_others,mcdowell,110
wv,all_others,all_others,marion,110
wv,all_others,all_others,marshall,110
wv,all_others,all_others,mason,110
wv,all_others,all_others,mercer,110
wv,all_others,all_others,mineral,110
wv,all_others,all_others,mingo,110
wv,all_others,all_others,monongalia,110
wv,all_others,all_others,monroe,110
wv,all_others,all_others,morgan,110
wv,all_others,all_others,nicholas,110
wv,all_others,all_others,ohio,110
wv,all_others,wheeling,ohio,130
wv,all_others,all_others,pendleton,110
wv,all_others,all_others,pleasants,110
wv,all_others,all_others,pocahontas,110
wv,all_others,all_others,preston,110
wv,all_others,all_others,putnam,110
wv,all_others,all_others,raleigh,110
wv,all_others,all_others,randolph,110
wv,all_others,all_others,ritchie,110
wv,all_others,all_others,roane,110
wv,all_others,all_others,summers,110
wv,all_others,all_others,taylor,110
wv,all_others,all_others,tucker,110
wv,all_others,all_others,tyler,110
wv,all_others,all_others,upshur,110
wv,all_others,all_others,wayne,110
wv,all_others,huntington,wayne,110
wv,all_others,all_others,webster,110
wv,all_others,all_others,wetzel,110
wv,all_others,all_others,wirt,110
wv,all_others,all_others,wood,110
wv,all_others,parkersburg,wood,130
wv,all_others,all_others,wyoming,110
wi,all_others,all_others,adams,113
wi,all_others,all_others,ashland,113
wi,all_others,all_others,barron,113
wi,all_others,all_others,bayfield,113
wi,all_others,all_others,brown,113
wi,all_others,green_bay,brown,133
wi,all_others,all_others,buffalo,113
wi,all_others,all_others,burnett,113
wi,all_others,all_others,calumet,113
wi,all_others,appleton,calumet,133
wi,all_others,all_others,chippewa,113
wi,all_others,eau_claire,chippewa,133
wi,all_others,all_others,clark,113
wi,all_others,all_others,columbia,112
wi,all_others,all_others,crawford,113
wi,all_others,all_others,dane,112
wi,all_others,madison,dane,132
wi,all_others,all_others,dodge,112
wi,all_others,all_others,door,113
wi,all_others,all_others,douglas,113
wi,all_others,superior,douglas,133
wi,all_others,all_others,dunn,113
wi,all_others,all_others,eau_claire,113
wi,all_others,eau_claire,eau_claire,133
wi,all_others,all_others,florence,113
wi,all_others,all_others,fond_du_lac,112
wi,all_others,fond_du_lac,fond_du_lac,132
wi,all_others,all_others,forest,113
wi,all_others,all_others,grant,113
wi,all_others,all_others,green,113
wi,all_others,all_others,green_lake,113
wi,all_others,all_others,iowa,113
wi,all_others,all_others,iron,113
wi,all_others,all_others,jackson,113
wi,all_others,all_others,jefferson,111
wi,all_others,all_others,juneau,113
wi,all_others,all_others,kenosha,111
wi,all_others,kenosha,kenosha,131
wi,all_others,all_others,kewaunee,113
wi,all_others,all_others,la_crosse,113
wi,all_others,la_crosse,la_crosse,133
wi,all_others,all_others,lafayette,113
wi,all_others,all_others,langlade,113
wi,all_others,all_others,lincoln,113
wi,all_others,all_others,manitowoc,112
wi,all_others,manitowoc,manitowoc,132
wi,all_others,all_others,marathon,113
wi,all_others,wausau,marathon,133
wi,all_others,all_others,marinette,113
wi,all_others,all_others,marquette,113
wi,all_others,all_others,menominee,113
wi,all_others,all_others,milwaukee,111
wi,all_others,milwaukee,milwaukee,121
wi,all_others,wauwatosa,milwaukee,131
wi,all_others,west_allis,milwaukee,131
wi,all_others,all_others,monroe,113
wi,all_others,all_others,oconto,113
wi,all_others,all_others,oneida,113
wi,all_others,all_others,outagamie,113
wi,all_others,appleton,outagamie,133
wi,all_others,all_others,ozaukee,112
wi,all_others,all_others,pepin,113
wi,all_others,all_others,pierce,113
wi,all_others,all_others,polk,113
wi,all_others,all_others,portage,113
wi,all_others,all_others,price,113
wi,all_others,all_others,racine,111
wi,all_others,racine,racine,131
wi,all_others,all_others,richland,113
wi,all_others,all_others,rock,111
wi,all_others,beloit,rock,131
wi,all_others,janesville,rock,131
wi,all_others,all_others,rusk,113
wi,all_others,all_others,st_croix,113
wi,all_others,all_others,sauk,113
wi,all_others,all_others,sawyer,113
wi,all_others,all_others,shawano,113
wi,all_others,all_others,sheboygan,112
wi,all_others,sheboygan,sheboygan,132
wi,all_others,all_others,taylor,113
wi,all_others,all_others,trempealeau,113
wi,all_others,all_others,vernon,113
wi,all_others,all_others,vilas,113
wi,all_others,all_others,walworth,111
wi,all_others,all_others,washburn,113
wi,all_others,all_others,washington,112
wi,all_others,all_others,waukesha,112
wi,all_others,waukesha,waukesha,132
wi,all_others,all_others,waupaca,113
wi,all_others,all_others,waushara,113
wi,all_others,all_others,winnebago,112
wi,all_others,appleton,winnebago,132
wi,all_others,oshkosh,winnebago,132
wi,all_others,all_others,wood,113
wy,all_others,all_others,albany,112
wy,all_others,laramie,albany,122
wy,all_others,all_others,big_horn,112
wy,all_others,all_others,campbell,113
wy,all_others,all_others,carbon,112
wy,all_others,all_others,converse,113
wy,all_others,all_others,crook,113
wy,all_others,all_others,fremont,112
wy,all_others,all_others,goshen,113
wy,all_others,all_others,hot_springs,112
wy,all_others,all_others,johnson,113
wy,all_others,all_others,laramie,114
wy,all_others,cheyenne,laramie,124
wy,all_others,all_others,lincoln,111
wy,all_others,all_others,natrona,113
wy,all_others,casper,natrona,123
wy,all_others,all_others,niobrara,113
wy,all_others,all_others,park,112
wy,all_others,all_others,platte,114
wy,all_others,all_others,sheridan,113
wy,all_others,all_others,sublette,111
wy,all_others,all_others,sweetwater,111
wy,all_others,all_others,teton,112
wy,all_others,all_others,uinta,111
wy,all_others,all_others,washakie,112
wy,all_others,all_others,weston,113
wy,all_others,all_others,yellowstone_national_park,112
fl,all_others,all_others,alachua,14
fl,all_others,gainesville,alachua,54
fl,all_others,all_others,baker,14
fl,all_others,all_others,bay,13
fl,all_others,panama_city,bay,53
fl,all_others,none,bay,12
fl,all_others,all_others,bradford,14
fl,all_others,all_others,brevard,13
fl,all_others,titusville,brevard,53
fl,all_others,none,brevard,12
fl,all_others,all_others,broward,11
fl,all_others,deerfield_beach,broward,51
fl,all_others,fort_lauderdale,broward,51
fl,all_others,hallandale,broward,51
fl,all_others,hollywood,broward,51
fl,all_others,lauderdale_lakes,broward,51
fl,all_others,lauderhill,broward,51
fl,all_others,margate,broward,51
fl,all_others,north_lauderdale,broward,51
fl,all_others,plantation,broward,51
fl,all_others,pompano_beach,broward,51
fl,all_others,sunrise,broward,51
fl,all_others,tamarac,broward,51
fl,all_others,all_others,calhoun,14
fl,all_others,all_others,charlotte,13
fl,all_others,none,charlotte,12
fl,all_others,all_others,citrus,13
fl,all_others,chassahowitzka,citrus,12
fl,all_others,ozello,citrus,12
fl,all_others,homossassa,citrus,12
fl,all_others,none,citrus,12
fl,all_others,all_others,clay,14
fl,all_others,all_others,collier,12
fl,all_others,naples,collier,52
fl,all_others,all_others,columbia,14
fl,all_others,all_others,desoto,13
fl,all_others,all_others,dixie,13
fl,all_others,horseshoe_beach,dixie,12
fl,all_others,jena,dixie,12
fl,all_others,steward_city,dixie,12
fl,all_others,suwanee,dixie,12
fl,all_others,none,dixie,12
fl,all_others,all_others,duval,14
fl,all_others,atlantic_beach,duval,12
fl,all_others,baldwin,duval,14
fl,all_others,jacksonville,duval,24
fl,all_others,jacksonville_seacoast_zone,duval,12
fl,all_others,jacksonville_beach,duval,12
fl,all_others,neptune_beach,duval,12
fl,all_others,none,duval,12
fl,all_others,all_others,escambia,13
fl,all_others,pensacola,escambia,53
fl,all_others,none,escambia,12
fl,all_others,all_others,flagler,13
fl,all_others,none,flagler,12
fl,all_others,all_others,franklin,12
fl,all_others,all_others,gadsden,14
fl,all_others,all_others,gilchrist,14
fl,all_others,all_others,glades,12
fl,all_others,all_others,gulf,13
fl,all_others,none,gulf,12
fl,all_others,all_others,hamilton,14
fl,all_others,all_others,hardee,13
fl,all_others,all_others,hendry,12
fl,all_others,all_others,hernando,13
fl,all_others,bayport,hernando,12
fl,all_others,pine_island_ridge,hernando,12
fl,all_others,none,hernando,12
fl,all_others,none,highlands,13
fl,all_others,all_others,hillsborough,13
fl,all_others,plant_city,hillsborough,53
fl,all_others,tampa,hillsborough,43
fl,all_others,all_others,holmes,14
fl,all_others,all_others,indian_river,12
fl,all_others,none,indian_river,11
fl,all_others,all_others,jackson,14
fl,all_others,all_others,jefferson,14
fl,all_others,none,jefferson,12
fl,all_others,all_others,lafayette,14
fl,all_others,all_others,lake,14
fl,all_others,all_others,lee,13
fl,all_others,none,lee,12
fl,all_others,punta_rassa,lee,12
fl,all_others,all_others,leon,14
fl,all_others,tallahassee,leon,54
fl,all_others,all_others,levy,13
fl,all_others,cedar_key,levy,12
fl,all_others,ellzey,levy,12
fl,all_others,rosewood,levy,12
fl,all_others,summer,levy,12
fl,all_others,yankeetown,levy,12
fl,all_others,none,levy,12
fl,all_others,all_others,liberty,14
fl,all_others,all_others,madison,14
fl,all_others,all_others,manatee,13
fl,all_others,anna_maria,manatee,12
fl,all_others,bredenton_beach,manatee,12
fl,all_others,long_beach,manatee,12
fl,all_others,terra_ceia,manatee,12
fl,all_others,none,manatee,12
fl,all_others,all_others,marion,14
fl,all_others,ocala,marion,54
fl,all_others,all_others,martin,11
fl,all_others,all_others,miami_dade,11
fl,all_others,coral_gables,miami_dade,51
fl,all_others,hialeah,miami_dade,51
fl,all_others,miami,miami_dade,31
fl,all_others,miami_beach,miami_dade,51
fl,all_others,all_others,monroe,15
fl,all_others,key_west,monroe,17
fl,all_others,all_others,nassau,14
fl,all_others,none,nassau,12
fl,all_others,all_others,okaloosa,13
fl,all_others,fort_walton_beach,okaloosa,53
fl,all_others,none,okaloosa,12
fl,all_others,all_others,okeechobee,12
fl,all_others,none,orange,14
fl,all_others,orlando,orange,54
fl,all_others,winter_park,orange,54
fl,all_others,all_others,osceola,14
fl,all_others,all_others,palm_beach,11
fl,all_others,boca_raton,palm_beach,51
fl,all_others,boynton_beach,palm_beach,51
fl,all_others,delray_beach,palm_beach,51
fl,all_others,lake_worth,palm_beach,51
fl,all_others,palm_beach,palm_beach,51
fl,all_others,riviera_beach,palm_beach,51
fl,all_others,west_palm_beach,palm_beach,51
fl,all_others,all_others,pasco,13
fl,all_others,aripeka,pasco,12
fl,all_others,none,pasco,12
fl,all_others,all_others,pinellas,13
fl,all_others,clearwater_east_of_waterway,pinellas,53
fl,all_others,clearwater_west_of_waterway,pinellas,52
fl,all_others,largo,pinellas,53
fl,all_others,pinellas_park,pinellas,53
fl,all_others,st_petersburg_east_of_waterway,pinellas,53
fl,all_others,st_petersburg_west_of_waterway,pinellas,52
fl,all_others,seminole,pinellas,13
fl,all_others,tarpon_springs,pinellas,13
fl,all_others,none,pinellas,12
fl,all_others,all_others,polk,14
fl,all_others,lakeland,polk,54
fl,all_others,winter_haven,polk,54
fl,all_others,all_others,putnam,14
fl,all_others,all_others,st_johns,13
fl,all_others,st_augustine,st_johns,53
fl,all_others,anastasia_island,st_johns,52
fl,all_others,none,st_johns,12
fl,all_others,all_others,st_lucie,12
fl,all_others,none,st_lucie,11
fl,all_others,all_others,santa_rosa,13
fl,all_others,none,santa_rosa,12
fl,all_others,all_others,sarasota,13
fl,all_others,sarasota_east_of_waterway,sarasota,53
fl,all_others,sarasota_west_of_waterway,sarasota,52
fl,all_others,none,sarasota,12
fl,all_others,all_others,seminole,14
fl,all_others,altamonte_springs,seminole,54
fl,all_others,sanford,seminole,54
fl,all_others,all_others,sumter,14
fl,all_others,all_others,suwanee,14
fl,all_others,all_others,taylor,13
fl,all_others,adams_beach,taylor,12
fl,all_others,fish_creek,taylor,12
fl,all_others,keatons_beach,taylor,12
fl,all_others,steinhatchee,taylor,12
fl,all_others,all_others,union,14
fl,all_others,all_others,volusia,13
fl,all_others,daytona_beach_east_of_waterway,volusia,53
fl,all_others,daytona_beach_west_of_waterway,volusia,12
fl,all_others,none,volusia,12
fl,all_others,all_others,wakulla,13
fl,all_others,panacea,wakulla,12
fl,all_others,st_marks,wakulla,12
fl,all_others,spring_creek,wakulla,12
fl,all_others,wakulla_beach,wakulla,12
fl,all_others,none,wakulla,12
fl,all_others,all_others,walton,13
fl,all_others,none,walton,12
fl,all_others,all_others,washington,14
fl,all_others,all_others,all_others,5
ak,all_others,all_others,all_others,110
ak,all_others,all_others,aleutians_east,110
ak,all_others,all_others,aleutians_west,110
ak,all_others,all_others,anchorage,110
ak,all_others,anchorage,anchorage,120
ak,all_others,all_others,bethel,110
ak,all_others,all_others,bristol_bay,110
ak,all_others,all_others,dillingham,110
ak,all_others,all_others,denali,110
ak,all_others,all_others,fairbanks,110
ak,all_others,fairbanks,fairbanks,120
ak,all_others,all_others,haines,110
ak,all_others,all_others,juneau,110
ak,all_others,juneau,juneau,120
ak,all_others,all_others,kenai,110
ak,all_others,all_others,ketchikan,110
ak,all_others,all_others,kodiak_island,110
ak,all_others,all_others,lake_and_peninsula,110
ak,all_others,all_others,matanuska_susitna,110
ak,all_others,all_others,Nome,110
ak,all_others,all_others,north_slope,110
ak,all_others,all_others,northwest_arctic,110
ak,all_others,all_others,prince_of_wales_outer_ketchikan,110
ak,all_others,all_others,sitka,110
ak,all_others,all_others,skagway_hoonah_angoon,110
ak,all_others,all_others,southeast_fairbanks,110
ak,all_others,all_others,valdez_cordova,110
ak,all_others,all_others,wade_hampton,110
ak,all_others,all_others,wrangell_petersburg,110
ak,all_others,all_others,yakutat,110
ak,all_others,all_others,yukon_koyukuk,110
